{
"type": "FeatureCollection",
"name": "jail_data_geojson",
"features": [
{ "type": "Feature", "properties": { "fips": 45001, "geo_geo_id": "0500000US45001", "name": "Abbeville County, South Carolina", "county_code": "US_SC_ABBEVILLE", "total_pop": 24368, "poverty_rate": 15.905719, "prop_black": 26.149048, "prop_male": 9.8695011, "prop_withoutba": 80.93766, "prop_18to34": 19.874426, "q2_1999": 5.675509, "q2_2000": 7.0473876, "q2_2001": 7.5033278, "q2_2002": 3.7250659, "q2_2003": 4.2087541, "q2_2004": 9.2659445, "q2_2005": 7.0913458, "q2_2006": 4.3588815, "q2_2007": 7.7811556, "q2_2008": 7.9200683, "q2_2009": 7.9754601, "q2_2010": 7.3373957, "q2_2011": 7.3075471, "q2_2012": 9.985918, "q2_2013": 9.635149, "q2_2014": 8.1013985, "q2_2015": 7.1465697, "q2_2016": 7.617547, "q2_2017": 7.3225937, "q2_2018": 7.354908, "q2_2019": 4.7144399, "jail_19992008": 6.4577441, "jail_20092019": 7.6817207 }, "geometry": null },
{ "type": "Feature", "properties": { "fips": 45003, "geo_geo_id": "0500000US45003", "name": "Aiken County, South Carolina", "county_code": "US_SC_AIKEN", "total_pop": 169865, "poverty_rate": 14.16271, "prop_black": 24.854443, "prop_male": 10.201631, "prop_withoutba": 70.398727, "prop_18to34": 20.574574, "q2_1999": 5.2136717, "q2_2000": 5.0657444, "q2_2001": 4.6190386, "q2_2002": 6.3141618, "q2_2003": 6.6439562, "q2_2004": 6.8463221, "q2_2005": 7.669374, "q2_2006": 8.2669811, "q2_2007": 7.9785104, "q2_2008": 8.3685322, "q2_2009": 7.622612, "q2_2010": 6.4475913, "q2_2011": 6.2712355, "q2_2012": 5.8260345, "q2_2013": 6.3114152, "q2_2014": 6.376009, "q2_2015": 6.9052467, "q2_2016": 7.2221794, "q2_2017": 7.8839545, "q2_2018": 7.9374323, "q2_2019": 7.7735238, "jail_19992008": 6.6986294, "jail_20092019": 6.9615669 }, "geometry": null },
{ "type": "Feature", "properties": { "fips": 45005, "geo_geo_id": "0500000US45005", "name": "Allendale County, South Carolina", "county_code": "US_SC_ALLENDALE", "total_pop": 8073, "poverty_rate": 27.209465, "prop_black": 71.893967, "prop_male": 13.229282, "prop_withoutba": 89.223984, "prop_18to34": 21.2932, "q2_1999": 8.2417583, "q2_2000": 7.0105157, "q2_2001": 6.9355254, "q2_2002": 7.8953867, "q2_2003": 7.9883804, "q2_2004": 9.0819836, "q2_2005": 7.3099418, "q2_2006": 9.8546438, "q2_2007": 8.491024, "q2_2008": 7.2974944, "q2_2009": 8.5428362, "q2_2010": 8.9720583, "q2_2011": 9.0979986, "q2_2012": 9.3358231, "q2_2013": 9.9036398, "q2_2014": 9.7932529, "q2_2015": 10.172798, "q2_2016": 11.147936, "q2_2017": 11.104256, "q2_2018": 11.082964, "q2_2019": 7.6666665, "jail_19992008": 8.0106649, "jail_20092019": 9.7109299 }, "geometry": null },
{ "type": "Feature", "properties": { "fips": 45007, "geo_geo_id": "0500000US45007", "name": "Anderson County, South Carolina", "county_code": "US_SC_ANDERSON", "total_pop": 204592, "poverty_rate": 14.273028, "prop_black": 14.943889, "prop_male": 10.174396, "prop_withoutba": 73.862022, "prop_18to34": 20.733948, "q2_1999": 5.1738844, "q2_2000": 5.4297123, "q2_2001": 6.1259131, "q2_2002": 6.3915901, "q2_2003": 7.331192, "q2_2004": 8.0265751, "q2_2005": 7.8695397, "q2_2006": 10.325363, "q2_2007": 9.676527, "q2_2008": 9.4226894, "q2_2009": 8.6173267, "q2_2010": 8.0742083, "q2_2011": 7.1453729, "q2_2012": 7.5920448, "q2_2013": 7.9546599, "q2_2014": 7.6666665, "q2_2015": 7.7636156, "q2_2016": 7.9499078, "q2_2017": 8.2013798, "q2_2018": 8.4505224, "q2_2019": 7.9923272, "jail_19992008": 7.5772986, "jail_20092019": 7.9461846 }, "geometry": null },
{ "type": "Feature", "properties": { "fips": 45009, "geo_geo_id": "0500000US45009", "name": "Bamberg County, South Carolina", "county_code": "US_SC_BAMBERG", "total_pop": 13311, "poverty_rate": 22.26753, "prop_black": 60.566448, "prop_male": 12.035159, "prop_withoutba": 82.145241, "prop_18to34": 22.672977, "q2_1999": 5.4158607, "q2_2000": 7.1099153, "q2_2001": 6.4202332, "q2_2002": 7.527504, "q2_2003": 8.7787752, "q2_2004": 8.8235292, "q2_2005": 6.7528458, "q2_2006": 7.711587, "q2_2007": 7.1900506, "q2_2008": 6.667974, "q2_2009": 5.9358926, "q2_2010": 6.9306931, "q2_2011": 8.3250742, "q2_2012": 6.6451874, "q2_2013": 9.4943237, "q2_2014": 6.7156348, "q2_2015": 8.4126635, "q2_2016": 8.6757984, "q2_2017": 8.6425447, "q2_2018": 8.572752, "q2_2019": 3.3444817, "jail_19992008": 7.2398276, "jail_20092019": 7.4268222 }, "geometry": null },
{ "type": "Feature", "properties": { "fips": 45011, "geo_geo_id": "0500000US45011", "name": "Barnwell County, South Carolina", "county_code": "US_SC_BARNWELL", "total_pop": 20653, "poverty_rate": 25.294176, "prop_black": 44.240547, "prop_male": 10.502107, "prop_withoutba": 85.663445, "prop_18to34": 20.273085, "q2_1999": 9.8324337, "q2_2000": 9.6153851, "q2_2001": 9.5994473, "q2_2002": 9.616724, "q2_2003": 8.5979748, "q2_2004": 11.610015, "q2_2005": 10.491441, "q2_2006": 9.6100283, "q2_2007": 10.963087, "q2_2008": 11.878144, "q2_2009": 11.976891, "q2_2010": null, "q2_2011": 11.50417, "q2_2012": 11.444299, "q2_2013": 10.029498, "q2_2014": 10.900403, "q2_2015": 10.820559, "q2_2016": 10.145367, "q2_2017": 11.802575, "q2_2018": 9.9703999, "q2_2019": 14.986591, "jail_19992008": 10.181468, "jail_20092019": 11.358075 }, "geometry": null },
{ "type": "Feature", "properties": { "fips": 45013, "geo_geo_id": "0500000US45013", "name": "Beaufort County, South Carolina", "county_code": "US_SC_BEAUFORT", "total_pop": 189071, "poverty_rate": 10.357439, "prop_black": 16.237286, "prop_male": 11.570786, "prop_withoutba": 56.612564, "prop_18to34": 20.659435, "q2_1999": 3.1399179, "q2_2000": 4.1048079, "q2_2001": 4.063477, "q2_2002": 4.3394632, "q2_2003": 4.4347477, "q2_2004": 4.397398, "q2_2005": 4.7370605, "q2_2006": 5.1485233, "q2_2007": 6.2483077, "q2_2008": 7.4783921, "q2_2009": 5.621954, "q2_2010": 7.6833572, "q2_2011": 7.9213552, "q2_2012": 7.1215668, "q2_2013": 4.1420584, "q2_2014": 3.9581952, "q2_2015": 3.8137372, "q2_2016": 3.3368328, "q2_2017": 3.584631, "q2_2018": 3.6633441, "q2_2019": 6.2777777, "jail_19992008": 4.8092093, "jail_20092019": 5.1931643 }, "geometry": null },
{ "type": "Feature", "properties": { "fips": 45015, "geo_geo_id": "0500000US45015", "name": "Berkeley County, South Carolina", "county_code": "US_SC_BERKELEY", "total_pop": 231419, "poverty_rate": 10.925435, "prop_black": 23.336891, "prop_male": 12.685216, "prop_withoutba": 71.640213, "prop_18to34": 23.828207, "q2_1999": 3.2815576, "q2_2000": 3.6996949, "q2_2001": 3.5962131, "q2_2002": 4.2064638, "q2_2003": 4.8299809, "q2_2004": 5.6958098, "q2_2005": 5.8327689, "q2_2006": 5.2367172, "q2_2007": 6.2358961, "q2_2008": 6.1458297, "q2_2009": 6.152483, "q2_2010": 5.8306222, "q2_2011": 5.8696713, "q2_2012": 4.6789904, "q2_2013": 5.5526218, "q2_2014": 5.065177, "q2_2015": 4.5651441, "q2_2016": 5.6271243, "q2_2017": 5.6325464, "q2_2018": 5.936048, "q2_2019": 5.1200423, "jail_19992008": 4.8760934, "jail_20092019": 5.4573154 }, "geometry": null },
{ "type": "Feature", "properties": { "fips": 45017, "geo_geo_id": "0500000US45017", "name": "Calhoun County, South Carolina", "county_code": "US_SC_CALHOUN", "total_pop": 14145, "poverty_rate": 18.659185, "prop_black": 38.911278, "prop_male": 8.320961, "prop_withoutba": 80.85714, "prop_18to34": 16.620714, "q2_1999": 7.7038307, "q2_2000": 7.5440063, "q2_2001": 9.892828, "q2_2002": 10.625256, "q2_2003": 10.696266, "q2_2004": 9.8890009, "q2_2005": 10.646846, "q2_2006": 10.815141, "q2_2007": 9.5541401, "q2_2008": 8.4473047, "q2_2009": 9.2723246, "q2_2010": 8.6189213, "q2_2011": 9.0796528, "q2_2012": 9.5602293, "q2_2013": 7.0048819, "q2_2014": 7.1754732, "q2_2015": 7.3660712, "q2_2016": 8.1503277, "q2_2017": 8.9986153, "q2_2018": 8.9622641, "q2_2019": 10.115267, "jail_19992008": 9.5814619, "jail_20092019": 8.5730934 }, "geometry": null },
{ "type": "Feature", "properties": { "fips": 45019, "geo_geo_id": "0500000US45019", "name": "Charleston County, South Carolina", "county_code": "US_SC_CHARLESTON", "total_pop": 409840, "poverty_rate": 12.271194, "prop_black": 24.786015, "prop_male": 12.154255, "prop_withoutba": 51.907017, "prop_18to34": 24.548361, "q2_1999": 11.506439, "q2_2000": 11.080386, "q2_2001": 11.503017, "q2_2002": 11.365122, "q2_2003": 11.863051, "q2_2004": 11.252499, "q2_2005": 12.771235, "q2_2006": 13.213141, "q2_2007": 15.200793, "q2_2008": 14.770418, "q2_2009": 14.265468, "q2_2010": 14.5291, "q2_2011": 13.916254, "q2_2012": 12.217616, "q2_2013": 10.077313, "q2_2014": 9.5776167, "q2_2015": 8.940671, "q2_2016": 8.7876835, "q2_2017": 9.0503597, "q2_2018": 8.7999029, "q2_2019": 9.357563, "jail_19992008": 12.45261, "jail_20092019": 10.865414 }, "geometry": null },
{ "type": "Feature", "properties": { "fips": 45021, "geo_geo_id": "0500000US45021", "name": "Cherokee County, South Carolina", "county_code": "US_SC_CHEROKEE", "total_pop": 56200, "poverty_rate": 17.986185, "prop_black": 19.670818, "prop_male": 11.320285, "prop_withoutba": 82.783257, "prop_18to34": 22.44128, "q2_1999": 6.5154295, "q2_2000": 8.3862324, "q2_2001": 8.9425707, "q2_2002": 7.2125092, "q2_2003": 8.0418177, "q2_2004": 8.5626211, "q2_2005": 7.2735534, "q2_2006": 9.304162, "q2_2007": 10.10952, "q2_2008": 8.3828344, "q2_2009": 9.9938927, "q2_2010": 8.3042688, "q2_2011": 8.755888, "q2_2012": 9.7792683, "q2_2013": 11.164806, "q2_2014": 10.131374, "q2_2015": 11.565491, "q2_2016": 11.447215, "q2_2017": 11.721571, "q2_2018": 13.266444, "q2_2019": 14.763231, "jail_19992008": 8.2731247, "jail_20092019": 10.990314 }, "geometry": null },
{ "type": "Feature", "properties": { "fips": 45023, "geo_geo_id": "0500000US45023", "name": "Chester County, South Carolina", "county_code": "US_SC_CHESTER", "total_pop": 32171, "poverty_rate": 18.949972, "prop_black": 36.069752, "prop_male": 9.511672, "prop_withoutba": 86.145897, "prop_18to34": 19.766249, "q2_1999": 7.2443314, "q2_2000": 7.2342796, "q2_2001": 7.4342537, "q2_2002": 7.5947022, "q2_2003": 7.2188807, "q2_2004": 10.188015, "q2_2005": 9.20331, "q2_2006": 9.8834496, "q2_2007": 9.8296194, "q2_2008": 9.471632, "q2_2009": 10.28169, "q2_2010": 10.978699, "q2_2011": 8.7868481, "q2_2012": 10.237589, "q2_2013": 4.4716635, "q2_2014": 9.3448753, "q2_2015": 7.9984198, "q2_2016": 7.9239302, "q2_2017": 9.1297016, "q2_2018": 8.8044024, "q2_2019": 8.3644056, "jail_19992008": 8.5302477, "jail_20092019": 8.756566 }, "geometry": null },
{ "type": "Feature", "properties": { "fips": 45025, "geo_geo_id": "0500000US45025", "name": "Chesterfield County, South Carolina", "county_code": "US_SC_CHESTERFIELD", "total_pop": 43536, "poverty_rate": 20.31715, "prop_black": 30.78372, "prop_male": 10.0905, "prop_withoutba": 87.129623, "prop_18to34": 19.951305, "q2_1999": 5.2937284, "q2_2000": 5.3817449, "q2_2001": 3.0561478, "q2_2002": 3.8582954, "q2_2003": 3.1897926, "q2_2004": 4.0796571, "q2_2005": 7.0091867, "q2_2006": 5.8744092, "q2_2007": 7.4839392, "q2_2008": 7.2573729, "q2_2009": 8.4166231, "q2_2010": 7.9012666, "q2_2011": 8.1584311, "q2_2012": 7.1552763, "q2_2013": 7.1500845, "q2_2014": 5.4611235, "q2_2015": 3.8445694, "q2_2016": 1.6697975, "q2_2017": 4.3788404, "q2_2018": 4.4282551, "q2_2019": 5.1655149, "jail_19992008": 5.2484274, "jail_20092019": 5.7936168 }, "geometry": null },
{ "type": "Feature", "properties": { "fips": 45027, "geo_geo_id": "0500000US45027", "name": "Clarendon County, South Carolina", "county_code": "US_SC_CLARENDON", "total_pop": 31163, "poverty_rate": 19.5229, "prop_black": 45.573277, "prop_male": 10.798061, "prop_withoutba": 83.405762, "prop_18to34": 20.01091, "q2_1999": 5.2187114, "q2_2000": 5.915493, "q2_2001": 4.2513862, "q2_2002": 5.0063715, "q2_2003": 5.5986996, "q2_2004": 6.0387564, "q2_2005": 6.5377035, "q2_2006": 5.7906461, "q2_2007": 6.5079789, "q2_2008": 7.6488481, "q2_2009": 7.4789114, "q2_2010": 6.0251484, "q2_2011": 5.0125313, "q2_2012": 5.3505535, "q2_2013": 5.3470922, "q2_2014": 6.2258277, "q2_2015": 4.9342108, "q2_2016": 5.3170919, "q2_2017": 4.9091802, "q2_2018": 5.9314365, "q2_2019": 5.5848904, "jail_19992008": 5.8514595, "jail_20092019": 5.6469884 }, "geometry": null },
{ "type": "Feature", "properties": { "fips": 45029, "geo_geo_id": "0500000US45029", "name": "Colleton County, South Carolina", "county_code": "US_SC_COLLETON", "total_pop": 38561, "poverty_rate": 16.626377, "prop_black": 34.833122, "prop_male": 10.131999, "prop_withoutba": 84.346115, "prop_18to34": 20.025414, "q2_1999": 6.1606917, "q2_2000": 6.2294807, "q2_2001": 7.5744829, "q2_2002": 7.2907066, "q2_2003": 7.3241782, "q2_2004": 6.7329011, "q2_2005": 6.9455795, "q2_2006": 8.0512648, "q2_2007": 6.9563799, "q2_2008": 5.2202282, "q2_2009": 6.7461953, "q2_2010": 7.9391336, "q2_2011": 7.6067877, "q2_2012": 7.4690208, "q2_2013": 11.997238, "q2_2014": 11.025262, "q2_2015": 9.9352055, "q2_2016": 9.2831364, "q2_2017": 8.202383, "q2_2018": 8.2101803, "q2_2019": 6.9728928, "jail_19992008": 6.8485894, "jail_20092019": 8.6715851 }, "geometry": null },
{ "type": "Feature", "properties": { "fips": 45031, "geo_geo_id": "0500000US45031", "name": "Darlington County, South Carolina", "county_code": "US_SC_DARLINGTON", "total_pop": 63025, "poverty_rate": 20.227629, "prop_black": 41.010712, "prop_male": 10.341928, "prop_withoutba": 80.997345, "prop_18to34": 21.185244, "q2_1999": 5.2684517, "q2_2000": 6.1474442, "q2_2001": 5.6603775, "q2_2002": 6.3273344, "q2_2003": 8.8437901, "q2_2004": 8.5848923, "q2_2005": 9.1875086, "q2_2006": 8.7295694, "q2_2007": 8.9484425, "q2_2008": 9.8428831, "q2_2009": 10.235272, "q2_2010": 8.7255173, "q2_2011": 10.053335, "q2_2012": 9.4534283, "q2_2013": 7.8636961, "q2_2014": 10.781804, "q2_2015": 9.5525637, "q2_2016": 8.9047642, "q2_2017": 8.7885141, "q2_2018": 9.7022238, "q2_2019": 9.9984217, "jail_19992008": 7.7540693, "jail_20092019": 9.4599581 }, "geometry": null },
{ "type": "Feature", "properties": { "fips": 45033, "geo_geo_id": "0500000US45033", "name": "Dillon County, South Carolina", "county_code": "US_SC_DILLON", "total_pop": 28255, "poverty_rate": 31.60932, "prop_black": 46.367016, "prop_male": 9.9026718, "prop_withoutba": 88.123894, "prop_18to34": 20.79278, "q2_1999": 8.6253376, "q2_2000": 11.240766, "q2_2001": 9.8652811, "q2_2002": 10.554089, "q2_2003": 9.4567623, "q2_2004": 11.420266, "q2_2005": 12.895905, "q2_2006": 22.033203, "q2_2007": 16.836735, "q2_2008": 16.303242, "q2_2009": 16.189417, "q2_2010": 15.116396, "q2_2011": 14.413672, "q2_2012": 13.087634, "q2_2013": 12.304729, "q2_2014": 11.389522, "q2_2015": 11.033874, "q2_2016": 10.237372, "q2_2017": 14.636395, "q2_2018": 20.56315, "q2_2019": 11.658339, "jail_19992008": 12.923159, "jail_20092019": 13.693682 }, "geometry": null },
{ "type": "Feature", "properties": { "fips": 45035, "geo_geo_id": "0500000US45035", "name": "Dorchester County, South Carolina", "county_code": "US_SC_DORCHESTER", "total_pop": 162139, "poverty_rate": 12.334644, "prop_black": 25.439899, "prop_male": 10.925194, "prop_withoutba": 70.563484, "prop_18to34": 21.718403, "q2_1999": 5.0060582, "q2_2000": 8.8240814, "q2_2001": 6.8746939, "q2_2002": 4.9683161, "q2_2003": 7.9353666, "q2_2004": 8.2449617, "q2_2005": 6.4746122, "q2_2006": 5.9631324, "q2_2007": 5.8897276, "q2_2008": 5.5867209, "q2_2009": 6.0381813, "q2_2010": 5.6241975, "q2_2011": 4.798923, "q2_2012": 3.9940197, "q2_2013": 4.0998182, "q2_2014": 3.9860282, "q2_2015": 3.7666678, "q2_2016": 4.5438313, "q2_2017": 4.2363739, "q2_2018": 4.4886618, "q2_2019": 4.8953733, "jail_19992008": 6.576767, "jail_20092019": 4.5883703 }, "geometry": null },
{ "type": "Feature", "properties": { "fips": 45037, "geo_geo_id": "0500000US45037", "name": "Edgefield County, South Carolina", "county_code": "US_SC_EDGEFIELD", "total_pop": 26181, "poverty_rate": 16.965811, "prop_black": 32.512127, "prop_male": 12.883389, "prop_withoutba": 80.123512, "prop_18to34": 21.698942, "q2_1999": 4.1557302, "q2_2000": 4.4097333, "q2_2001": 4.7115488, "q2_2002": 4.6835971, "q2_2003": 6.0914717, "q2_2004": 4.9548235, "q2_2005": 5.583365, "q2_2006": 4.8595591, "q2_2007": 6.3876443, "q2_2008": 6.6842399, "q2_2009": 6.9418387, "q2_2010": 7.24365, "q2_2011": 7.4074073, "q2_2012": 5.1426353, "q2_2013": 4.9941244, "q2_2014": 4.4334974, "q2_2015": 5.0595236, "q2_2016": 4.7302737, "q2_2017": 5.8550372, "q2_2018": 6.0198655, "q2_2019": 4.8348107, "jail_19992008": 5.2521715, "jail_20092019": 5.6966057 }, "geometry": null },
{ "type": "Feature", "properties": { "fips": 45039, "geo_geo_id": "0500000US45039", "name": "Fairfield County, South Carolina", "county_code": "US_SC_FAIRFIELD", "total_pop": 20942, "poverty_rate": 18.71883, "prop_black": 55.93544, "prop_male": 9.2302551, "prop_withoutba": 85.283928, "prop_18to34": 18.651514, "q2_1999": 10.376315, "q2_2000": 8.8123646, "q2_2001": 7.9375753, "q2_2002": 10.220335, "q2_2003": 11.0299, "q2_2004": 9.6379261, "q2_2005": 11.211055, "q2_2006": 12.001044, "q2_2007": 11.869908, "q2_2008": 11.485751, "q2_2009": 11.24031, "q2_2010": 9.1479359, "q2_2011": 9.6540623, "q2_2012": 7.12817, "q2_2013": 9.7438755, "q2_2014": 7.0611496, "q2_2015": 10.506621, "q2_2016": 12.240083, "q2_2017": 11.346671, "q2_2018": 10.617018, "q2_2019": 10.920437, "jail_19992008": 10.458218, "jail_20092019": 9.9642124 }, "geometry": null },
{ "type": "Feature", "properties": { "fips": 45041, "geo_geo_id": "0500000US45041", "name": "Florence County, South Carolina", "county_code": "US_SC_FLORENCE", "total_pop": 137015, "poverty_rate": 17.819643, "prop_black": 42.825237, "prop_male": 10.163851, "prop_withoutba": 76.204315, "prop_18to34": 21.423203, "q2_1999": 8.0486946, "q2_2000": 7.3667593, "q2_2001": 9.3013954, "q2_2002": 8.979147, "q2_2003": 9.3206453, "q2_2004": 8.7251568, "q2_2005": 9.5773973, "q2_2006": 10.987965, "q2_2007": 10.071874, "q2_2008": 11.282172, "q2_2009": 9.3694363, "q2_2010": 9.1685333, "q2_2011": 9.0475521, "q2_2012": 9.6262207, "q2_2013": 7.3154092, "q2_2014": 7.4783554, "q2_2015": 6.1121511, "q2_2016": 7.6963401, "q2_2017": 7.944294, "q2_2018": 8.1913891, "q2_2019": 8.2511044, "jail_19992008": 9.3661203, "jail_20092019": 8.2000713 }, "geometry": null },
{ "type": "Feature", "properties": { "fips": 45043, "geo_geo_id": "0500000US45043", "name": "Georgetown County, South Carolina", "county_code": "US_SC_GEORGETOWN", "total_pop": 63594, "poverty_rate": 16.003176, "prop_black": 29.554674, "prop_male": 8.247633, "prop_withoutba": 69.018776, "prop_18to34": 16.402491, "q2_1999": 9.1125669, "q2_2000": 8.1876774, "q2_2001": 8.8260746, "q2_2002": 9.9360437, "q2_2003": 10.918142, "q2_2004": 10.424297, "q2_2005": 9.8700724, "q2_2006": 11.326411, "q2_2007": 11.085374, "q2_2008": 11.187417, "q2_2009": 11.756144, "q2_2010": 12.95118, "q2_2011": 14.130064, "q2_2012": 12.129922, "q2_2013": 12.729681, "q2_2014": 11.631944, "q2_2015": 10.867052, "q2_2016": 9.6738691, "q2_2017": 9.0289516, "q2_2018": 8.1300812, "q2_2019": 8.1092119, "jail_19992008": 10.087407, "jail_20092019": 11.012554 }, "geometry": null },
{ "type": "Feature", "properties": { "fips": 45045, "geo_geo_id": "0500000US45045", "name": "Greenville County, South Carolina", "county_code": "US_SC_GREENVILLE", "total_pop": 528251, "poverty_rate": 10.917996, "prop_black": 17.221928, "prop_male": 11.195057, "prop_withoutba": 60.702587, "prop_18to34": 22.643402, "q2_1999": 6.358562, "q2_2000": 6.6298952, "q2_2001": 7.1272688, "q2_2002": 7.4091048, "q2_2003": 7.6107888, "q2_2004": 8.1493244, "q2_2005": 8.8494272, "q2_2006": 9.5909081, "q2_2007": 9.4268551, "q2_2008": 9.4719143, "q2_2009": 10.050661, "q2_2010": 8.3767452, "q2_2011": 6.4758058, "q2_2012": 7.8800859, "q2_2013": 8.1513605, "q2_2014": 8.3812342, "q2_2015": 8.7133312, "q2_2016": null, "q2_2017": 8.479064, "q2_2018": 7.7125359, "q2_2019": 7.6924005, "jail_19992008": 8.0624046, "jail_20092019": 8.1913223 }, "geometry": null },
{ "type": "Feature", "properties": { "fips": 45047, "geo_geo_id": "0500000US45047", "name": "Greenwood County, South Carolina", "county_code": "US_SC_GREENWOOD", "total_pop": 69309, "poverty_rate": 17.344738, "prop_black": 31.726038, "prop_male": 10.349305, "prop_withoutba": 75.769485, "prop_18to34": 22.341976, "q2_1999": 6.0900741, "q2_2000": 8.2874279, "q2_2001": 7.4203405, "q2_2002": 8.1296902, "q2_2003": 9.4968586, "q2_2004": 9.5228939, "q2_2005": 10.453621, "q2_2006": 10.466761, "q2_2007": 12.52363, "q2_2008": 12.522446, "q2_2009": 9.3523502, "q2_2010": 8.9759855, "q2_2011": 9.0136852, "q2_2012": 7.8792481, "q2_2013": 9.521986, "q2_2014": 9.8427095, "q2_2015": 9.5967426, "q2_2016": 9.5845089, "q2_2017": 9.3830519, "q2_2018": 9.2402468, "q2_2019": 9.0041599, "jail_19992008": 9.491374, "jail_20092019": 9.2176981 }, "geometry": null },
{ "type": "Feature", "properties": { "fips": 45049, "geo_geo_id": "0500000US45049", "name": "Hampton County, South Carolina", "county_code": "US_SC_HAMPTON", "total_pop": 18890, "poverty_rate": 19.983408, "prop_black": 52.721016, "prop_male": 12.938063, "prop_withoutba": 88.436195, "prop_18to34": 22.292217, "q2_1999": 5.313199, "q2_2000": 6.4716196, "q2_2001": 6.5279479, "q2_2002": 6.5049462, "q2_2003": 6.4325919, "q2_2004": 7.4586387, "q2_2005": 7.10075, "q2_2006": 6.096735, "q2_2007": 4.8250904, "q2_2008": 5.5429411, "q2_2009": 6.2716837, "q2_2010": 7.4034185, "q2_2011": 6.8511553, "q2_2012": 6.4257026, "q2_2013": 4.822505, "q2_2014": 6.7693124, "q2_2015": 7.7805076, "q2_2016": 8.1077366, "q2_2017": 5.2392111, "q2_2018": 7.6807022, "q2_2019": 7.3489389, "jail_19992008": 6.2274461, "jail_20092019": 6.7909884 }, "geometry": null },
{ "type": "Feature", "properties": { "fips": 45051, "geo_geo_id": "0500000US45051", "name": "Horry County, South Carolina", "county_code": "US_SC_HORRY", "total_pop": 356578, "poverty_rate": 13.101731, "prop_black": 12.352417, "prop_male": 9.3561573, "prop_withoutba": 74.641426, "prop_18to34": 18.911991, "q2_1999": 7.3183393, "q2_2000": 6.909091, "q2_2001": 5.4373736, "q2_2002": 6.799849, "q2_2003": 6.7122679, "q2_2004": 7.3504205, "q2_2005": 7.2292304, "q2_2006": 7.2416964, "q2_2007": 7.6738548, "q2_2008": 7.3760018, "q2_2009": 7.9104629, "q2_2010": 7.5828414, "q2_2011": 7.4411011, "q2_2012": 7.9988236, "q2_2013": 7.3934054, "q2_2014": 7.3333483, "q2_2015": 6.6163993, "q2_2016": 6.7552729, "q2_2017": 7.2710238, "q2_2018": 7.6959066, "q2_2019": null, "jail_19992008": 7.0048122, "jail_20092019": 7.3998585 }, "geometry": null },
{ "type": "Feature", "properties": { "fips": 45053, "geo_geo_id": "0500000US45053", "name": "Jasper County, South Carolina", "county_code": "US_SC_JASPER", "total_pop": 29444, "poverty_rate": 17.914883, "prop_black": 37.335281, "prop_male": 11.132998, "prop_withoutba": 76.720345, "prop_18to34": 20.1637, "q2_1999": 4.8322515, "q2_2000": 6.0451369, "q2_2001": 5.5002623, "q2_2002": 6.4674683, "q2_2003": 9.1696377, "q2_2004": 8.2893744, "q2_2005": 8.0385847, "q2_2006": 9.6350718, "q2_2007": 12.59268, "q2_2008": 11.230752, "q2_2009": 10.987766, "q2_2010": 8.2363272, "q2_2011": 8.5305452, "q2_2012": 8.7979765, "q2_2013": 8.2020998, "q2_2014": 8.9079514, "q2_2015": 8.8942575, "q2_2016": 9.2461653, "q2_2017": 8.7700062, "q2_2018": 11.020498, "q2_2019": 10.054054, "jail_19992008": 8.1801224, "jail_20092019": 9.240695 }, "geometry": null },
{ "type": "Feature", "properties": { "fips": 45055, "geo_geo_id": "0500000US45055", "name": "Kershaw County, South Carolina", "county_code": "US_SC_KERSHAW", "total_pop": 65779, "poverty_rate": 14.436582, "prop_black": 22.891804, "prop_male": 9.4574261, "prop_withoutba": 78.66993, "prop_18to34": 19.112482, "q2_1999": 5.0306082, "q2_2000": 4.5465283, "q2_2001": 5.1934409, "q2_2002": 4.8619552, "q2_2003": 5.3390889, "q2_2004": 6.0873451, "q2_2005": 5.1279254, "q2_2006": 6.3334932, "q2_2007": 7.677844, "q2_2008": 6.8273506, "q2_2009": 5.9880242, "q2_2010": 5.7553225, "q2_2011": 5.7968068, "q2_2012": 6.1440787, "q2_2013": 7.503726, "q2_2014": 6.3362288, "q2_2015": 5.0559216, "q2_2016": 5.3134418, "q2_2017": 5.0921683, "q2_2018": 6.2838898, "q2_2019": 5.4685931, "jail_19992008": 5.702558, "jail_20092019": 5.8852911 }, "geometry": null },
{ "type": "Feature", "properties": { "fips": 45057, "geo_geo_id": "0500000US45057", "name": "Lancaster County, South Carolina", "county_code": "US_SC_LANCASTER", "total_pop": 97611, "poverty_rate": 12.099555, "prop_black": 19.723186, "prop_male": 9.4149227, "prop_withoutba": 69.923233, "prop_18to34": 18.431324, "q2_1999": 4.6710782, "q2_2000": 4.8303375, "q2_2001": 5.0112157, "q2_2002": 5.5978923, "q2_2003": 5.4368029, "q2_2004": 4.9190879, "q2_2005": 5.4622421, "q2_2006": 5.889493, "q2_2007": 6.7676024, "q2_2008": 6.4014635, "q2_2009": 7.583703, "q2_2010": 6.057466, "q2_2011": 5.3680067, "q2_2012": 5.2137232, "q2_2013": 4.9354444, "q2_2014": 4.835403, "q2_2015": 4.996377, "q2_2016": 4.6608748, "q2_2017": 4.8742948, "q2_2018": 4.9801154, "q2_2019": 4.8513193, "jail_19992008": 5.4987216, "jail_20092019": 5.3051572 }, "geometry": null },
{ "type": "Feature", "properties": { "fips": 45059, "geo_geo_id": "0500000US45059", "name": "Laurens County, South Carolina", "county_code": "US_SC_LAURENS", "total_pop": 67456, "poverty_rate": 18.839067, "prop_black": 23.072819, "prop_male": 10.553546, "prop_withoutba": 82.083221, "prop_18to34": 20.978119, "q2_1999": 6.564158, "q2_2000": 6.7687135, "q2_2001": 6.3914781, "q2_2002": 6.9472365, "q2_2003": 7.4673586, "q2_2004": 8.5008774, "q2_2005": 7.7571516, "q2_2006": 7.697155, "q2_2007": 8.1625252, "q2_2008": 9.6669264, "q2_2009": 10.010149, "q2_2010": 9.030817, "q2_2011": 8.3061123, "q2_2012": 9.2435389, "q2_2013": 12.527879, "q2_2014": 11.061215, "q2_2015": 10.053335, "q2_2016": 9.8164749, "q2_2017": 9.8174715, "q2_2018": 11.944737, "q2_2019": 11.968594, "jail_19992008": 7.5923581, "jail_20092019": 10.343666 }, "geometry": null },
{ "type": "Feature", "properties": { "fips": 45061, "geo_geo_id": "0500000US45061", "name": "Lee County, South Carolina", "county_code": "US_SC_LEE", "total_pop": 16557, "poverty_rate": 27.781775, "prop_black": 62.873711, "prop_male": 12.949205, "prop_withoutba": 85.5513, "prop_18to34": 22.491997, "q2_1999": 40.559837, "q2_2000": 45.817871, "q2_2001": 40.074692, "q2_2002": 50.784595, "q2_2003": 45.994907, "q2_2004": 43.611111, "q2_2005": 52.263374, "q2_2006": 53.276436, "q2_2007": 60.390766, "q2_2008": 54.95409, "q2_2009": 48.848568, "q2_2010": 49.270073, "q2_2011": 48.482231, "q2_2012": 55.833088, "q2_2013": 50.67466, "q2_2014": 48.501282, "q2_2015": 44.242134, "q2_2016": 40.964649, "q2_2017": 34.07935, "q2_2018": 38.833305, "q2_2019": 39.75753, "jail_19992008": 48.772766, "jail_20092019": 45.407898 }, "geometry": null },
{ "type": "Feature", "properties": { "fips": 45063, "geo_geo_id": "0500000US45063", "name": "Lexington County, South Carolina", "county_code": "US_SC_LEXINGTON", "total_pop": 295934, "poverty_rate": 11.598295, "prop_black": 15.054032, "prop_male": 10.442869, "prop_withoutba": 67.394905, "prop_18to34": 20.906351, "q2_1999": 7.3099418, "q2_2000": 7.5250258, "q2_2001": 7.371913, "q2_2002": 8.9452915, "q2_2003": 9.3380184, "q2_2004": 9.5488586, "q2_2005": 9.3947973, "q2_2006": 10.138112, "q2_2007": 10.882267, "q2_2008": 9.9665012, "q2_2009": 9.9726849, "q2_2010": 9.9681482, "q2_2011": 9.2093601, "q2_2012": 7.8204689, "q2_2013": 7.7444229, "q2_2014": 7.4407091, "q2_2015": 8.843297, "q2_2016": 8.4456129, "q2_2017": 8.1977024, "q2_2018": 7.7132196, "q2_2019": 7.3961654, "jail_19992008": 9.0420723, "jail_20092019": 8.4319811 }, "geometry": null },
{ "type": "Feature", "properties": { "fips": 45065, "geo_geo_id": "0500000US45065", "name": "McCormick County, South Carolina", "county_code": "US_SC_MCCORMICK", "total_pop": 9612, "poverty_rate": 16.684107, "prop_black": 43.456097, "prop_male": 8.3749475, "prop_withoutba": 78.737793, "prop_18to34": 13.930504, "q2_1999": 2.646903, "q2_2000": 2.7169909, "q2_2001": 2.7895424, "q2_2002": 2.833591, "q2_2003": 5.134788, "q2_2004": 4.4713311, "q2_2005": 3.0895984, "q2_2006": 3.0911901, "q2_2007": 5.4446459, "q2_2008": 4.4479332, "q2_2009": 3.9390755, "q2_2010": 3.7433155, "q2_2011": 3.6001105, "q2_2012": 5.6322165, "q2_2013": 5.4115634, "q2_2014": 4.3240128, "q2_2015": 4.4789491, "q2_2016": 3.9804044, "q2_2017": 3.7267082, "q2_2018": 4.2290177, "q2_2019": 2.5864856, "jail_19992008": 3.6666515, "jail_20092019": 4.1501689 }, "geometry": null },
{ "type": "Feature", "properties": { "fips": 45067, "geo_geo_id": "0500000US45067", "name": "Marion County, South Carolina", "county_code": "US_SC_MARION", "total_pop": 29212, "poverty_rate": 27.393709, "prop_black": 56.315899, "prop_male": 9.0476513, "prop_withoutba": 86.275383, "prop_18to34": 18.937424, "q2_1999": 10.529285, "q2_2000": 10.201243, "q2_2001": 9.7041645, "q2_2002": 10.323925, "q2_2003": 10.467219, "q2_2004": 10.115469, "q2_2005": 11.252164, "q2_2006": 3.4096444, "q2_2007": 5.0890589, "q2_2008": 6.8195295, "q2_2009": 12.919379, "q2_2010": 11.788618, "q2_2011": 10.599979, "q2_2012": 9.4488192, "q2_2013": 9.6483707, "q2_2014": 10.282498, "q2_2015": 10.691061, "q2_2016": 12.691756, "q2_2017": 14.670761, "q2_2018": 12.106538, "q2_2019": 13.725951, "jail_19992008": 8.7911701, "jail_20092019": 11.688521 }, "geometry": null },
{ "type": "Feature", "properties": { "fips": 45069, "geo_geo_id": "0500000US45069", "name": "Marlboro County, South Carolina", "county_code": "US_SC_MARLBORO", "total_pop": 26585, "poverty_rate": 27.824614, "prop_black": 49.400036, "prop_male": 13.541471, "prop_withoutba": 91.709572, "prop_18to34": 22.324619, "q2_1999": 9.3891869, "q2_2000": 8.8815451, "q2_2001": 9.5629826, "q2_2002": 8.7496185, "q2_2003": 9.4204388, "q2_2004": 8.8585682, "q2_2005": 8.460413, "q2_2006": 6.4757385, "q2_2007": 6.0111251, "q2_2008": 6.0116644, "q2_2009": 5.2509789, "q2_2010": 6.8728523, "q2_2011": 7.8089533, "q2_2012": 6.5915956, "q2_2013": 5.5763783, "q2_2014": 5.5937643, "q2_2015": 4.2810607, "q2_2016": 4.830451, "q2_2017": 5.0995393, "q2_2018": 5.1787672, "q2_2019": 4.8115478, "jail_19992008": 8.182128, "jail_20092019": 5.6268988 }, "geometry": null },
{ "type": "Feature", "properties": { "fips": 45071, "geo_geo_id": "0500000US45071", "name": "Newberry County, South Carolina", "county_code": "US_SC_NEWBERRY", "total_pop": 37918, "poverty_rate": 15.54301, "prop_black": 30.117622, "prop_male": 11.179387, "prop_withoutba": 77.48661, "prop_18to34": 21.237934, "q2_1999": 7.3599448, "q2_2000": 7.462687, "q2_2001": 7.4467173, "q2_2002": 7.8012385, "q2_2003": 10.304054, "q2_2004": 9.5951519, "q2_2005": 10.774242, "q2_2006": 9.4160404, "q2_2007": 10.657485, "q2_2008": 11.059229, "q2_2009": 10.07536, "q2_2010": 10.122623, "q2_2011": 8.9359589, "q2_2012": 8.679121, "q2_2013": 7.8379049, "q2_2014": 7.9818521, "q2_2015": 7.1338644, "q2_2016": 5.796371, "q2_2017": 7.013442, "q2_2018": 6.1697512, "q2_2019": 6.3057003, "jail_19992008": 9.1876793, "jail_20092019": 7.8229046 }, "geometry": null },
{ "type": "Feature", "properties": { "fips": 45073, "geo_geo_id": "0500000US45073", "name": "Oconee County, South Carolina", "county_code": "US_SC_OCONEE", "total_pop": 78775, "poverty_rate": 15.689617, "prop_black": 6.7432561, "prop_male": 9.7226276, "prop_withoutba": 72.200912, "prop_18to34": 18.970486, "q2_1999": 3.3807578, "q2_2000": 3.4722221, "q2_2001": 3.4840012, "q2_2002": 3.7451491, "q2_2003": 3.9296243, "q2_2004": 5.350431, "q2_2005": 5.0516047, "q2_2006": 6.1397443, "q2_2007": 6.6227999, "q2_2008": 6.8507719, "q2_2009": 6.9141035, "q2_2010": 6.6250482, "q2_2011": 5.9014711, "q2_2012": 5.2525077, "q2_2013": 6.0412531, "q2_2014": 7.3195028, "q2_2015": 6.6148362, "q2_2016": 7.5926561, "q2_2017": 7.576406, "q2_2018": 6.6030502, "q2_2019": 7.9071336, "jail_19992008": 4.8027105, "jail_20092019": 6.7589064 }, "geometry": null },
{ "type": "Feature", "properties": { "fips": 45075, "geo_geo_id": "0500000US45075", "name": "Orangeburg County, South Carolina", "county_code": "US_SC_ORANGEBURG", "total_pop": 84159, "poverty_rate": 25.004328, "prop_black": 61.485996, "prop_male": 10.651267, "prop_withoutba": 80.844696, "prop_18to34": 22.465809, "q2_1999": 7.8788095, "q2_2000": 7.8350372, "q2_2001": 10.318849, "q2_2002": 11.036979, "q2_2003": 11.300632, "q2_2004": 10.278071, "q2_2005": 11.071142, "q2_2006": 11.388401, "q2_2007": 9.9993057, "q2_2008": 8.9125328, "q2_2009": 9.7777462, "q2_2010": 9.0187712, "q2_2011": 9.3705807, "q2_2012": 9.9620152, "q2_2013": 7.4063263, "q2_2014": 7.504621, "q2_2015": 7.4539771, "q2_2016": 8.3244228, "q2_2017": 9.0353231, "q2_2018": 9.2603588, "q2_2019": 10.347882, "jail_19992008": 10.001976, "jail_20092019": 8.8601837 }, "geometry": null },
{ "type": "Feature", "properties": { "fips": 45077, "geo_geo_id": "0500000US45077", "name": "Pickens County, South Carolina", "county_code": "US_SC_PICKENS", "total_pop": 131106, "poverty_rate": 16.920584, "prop_black": 6.2468538, "prop_male": 16.011471, "prop_withoutba": 72.525192, "prop_18to34": 30.354828, "q2_1999": 3.1955416, "q2_2000": 3.4333031, "q2_2001": 3.6924469, "q2_2002": 3.7626991, "q2_2003": 4.033555, "q2_2004": 4.19169, "q2_2005": 4.6832695, "q2_2006": 5.0403471, "q2_2007": 6.0032659, "q2_2008": 5.4899354, "q2_2009": 5.4876175, "q2_2010": 5.5081439, "q2_2011": 5.736587, "q2_2012": 5.0918179, "q2_2013": 6.1301775, "q2_2014": 6.6202011, "q2_2015": 6.26054, "q2_2016": 6.1058965, "q2_2017": 5.6921263, "q2_2018": 5.9252305, "q2_2019": 5.5337186, "jail_19992008": 4.3526053, "jail_20092019": 5.8265505 }, "geometry": null },
{ "type": "Feature", "properties": { "fips": 45079, "geo_geo_id": "0500000US45079", "name": "Richland County, South Carolina", "county_code": "US_SC_RICHLAND", "total_pop": 416161, "poverty_rate": 16.826899, "prop_black": 47.286747, "prop_male": 14.868765, "prop_withoutba": 59.761574, "prop_18to34": 29.774534, "q2_1999": 7.5348063, "q2_2000": 7.5750031, "q2_2001": 6.7252474, "q2_2002": 7.4578528, "q2_2003": 7.8760557, "q2_2004": 7.5217147, "q2_2005": 8.032095, "q2_2006": 9.0617485, "q2_2007": 8.5863705, "q2_2008": 8.5769176, "q2_2009": 7.8286414, "q2_2010": 6.921155, "q2_2011": 7.2272553, "q2_2012": 7.0328512, "q2_2013": 7.4662638, "q2_2014": 6.6767936, "q2_2015": 6.1923695, "q2_2016": 5.9380403, "q2_2017": 6.0141959, "q2_2018": 6.0385184, "q2_2019": 5.772675, "jail_19992008": 7.8947811, "jail_20092019": 6.6462507 }, "geometry": null },
{ "type": "Feature", "properties": { "fips": 45081, "geo_geo_id": "0500000US45081", "name": "Saluda County, South Carolina", "county_code": "US_SC_SALUDA", "total_pop": 18952, "poverty_rate": 17.894175, "prop_black": 23.052977, "prop_male": 9.6506968, "prop_withoutba": 80.812248, "prop_18to34": 18.198606, "q2_1999": 6.4474535, "q2_2000": 8.1748152, "q2_2001": 9.4221106, "q2_2002": 10.055693, "q2_2003": 7.714859, "q2_2004": 7.6791811, "q2_2005": 7.5558982, "q2_2006": 7.5095787, "q2_2007": 7.2926164, "q2_2008": 7.8800988, "q2_2009": 8.1979656, "q2_2010": 5.7610674, "q2_2011": 6.1368518, "q2_2012": 6.0530806, "q2_2013": 7.4638476, "q2_2014": 6.5861688, "q2_2015": 6.147541, "q2_2016": 6.5442939, "q2_2017": 7.4638848, "q2_2018": 8.3453693, "q2_2019": 6.4422617, "jail_19992008": 7.9732304, "jail_20092019": 6.831121 }, "geometry": null },
{ "type": "Feature", "properties": { "fips": 45083, "geo_geo_id": "0500000US45083", "name": "Spartanburg County, South Carolina", "county_code": "US_SC_SPARTANBURG", "total_pop": 330119, "poverty_rate": 14.415894, "prop_black": 20.291471, "prop_male": 11.388317, "prop_withoutba": 74.762978, "prop_18to34": 23.04472, "q2_1999": 7.7742338, "q2_2000": 7.229403, "q2_2001": 7.2218752, "q2_2002": 7.2757897, "q2_2003": 7.4032755, "q2_2004": 8.3030739, "q2_2005": 8.0446749, "q2_2006": 9.0751896, "q2_2007": 9.9261646, "q2_2008": 9.7117109, "q2_2009": 8.2156439, "q2_2010": 9.272768, "q2_2011": 9.142046, "q2_2012": 8.7787075, "q2_2013": 8.0212193, "q2_2014": 7.6854768, "q2_2015": 7.5893602, "q2_2016": 7.8818641, "q2_2017": 7.5841398, "q2_2018": 7.5981722, "q2_2019": 8.5729179, "jail_19992008": 8.1965389, "jail_20092019": 8.2129383 }, "geometry": null },
{ "type": "Feature", "properties": { "fips": 45085, "geo_geo_id": "0500000US45085", "name": "Sumter County, South Carolina", "county_code": "US_SC_SUMTER", "total_pop": 105199, "poverty_rate": 16.41456, "prop_black": 45.861652, "prop_male": 12.389852, "prop_withoutba": 76.92717, "prop_18to34": 23.884258, "q2_1999": 8.4055996, "q2_2000": 9.5240917, "q2_2001": 8.3033237, "q2_2002": 10.512949, "q2_2003": 9.6708927, "q2_2004": 9.1727037, "q2_2005": 11.08783, "q2_2006": 11.329703, "q2_2007": 12.934944, "q2_2008": 11.710764, "q2_2009": 10.192789, "q2_2010": 10.169492, "q2_2011": 9.795373, "q2_2012": 11.025998, "q2_2013": 9.8124599, "q2_2014": 9.4154797, "q2_2015": 8.1530542, "q2_2016": 7.3145552, "q2_2017": 6.0084295, "q2_2018": 6.8894973, "q2_2019": 6.768857, "jail_19992008": 10.26528, "jail_20092019": 8.6859989 }, "geometry": null },
{ "type": "Feature", "properties": { "fips": 45087, "geo_geo_id": "0500000US45087", "name": "Union County, South Carolina", "county_code": "US_SC_UNION", "total_pop": 27158, "poverty_rate": 21.046329, "prop_black": 29.144266, "prop_male": 9.3269014, "prop_withoutba": 86.062447, "prop_18to34": 19.38287, "q2_1999": 3.5233827, "q2_2000": 9.7004585, "q2_2001": 7.1136026, "q2_2002": 7.3307457, "q2_2003": 8.5129309, "q2_2004": 7.4804854, "q2_2005": 7.1366782, "q2_2006": 14.600908, "q2_2007": 8.3768492, "q2_2008": 8.7776337, "q2_2009": 8.4865627, "q2_2010": 10.030864, "q2_2011": 10.085651, "q2_2012": 10.218326, "q2_2013": 10.271628, "q2_2014": 8.0422792, "q2_2015": 9.3619976, "q2_2016": 10.0, "q2_2017": 11.308752, "q2_2018": 9.9187374, "q2_2019": 4.9314413, "jail_19992008": 8.2553673, "jail_20092019": 9.3323851 }, "geometry": null },
{ "type": "Feature", "properties": { "fips": 45089, "geo_geo_id": "0500000US45089", "name": "Williamsburg County, South Carolina", "county_code": "US_SC_WILLIAMSBURG", "total_pop": 30879, "poverty_rate": 23.530415, "prop_black": 63.616051, "prop_male": 10.900612, "prop_withoutba": 84.758217, "prop_18to34": 20.052464, "q2_1999": 8.1286125, "q2_2000": 8.7568836, "q2_2001": 9.3133163, "q2_2002": null, "q2_2003": 10.515635, "q2_2004": 10.825439, "q2_2005": 9.0950432, "q2_2006": 8.8220034, "q2_2007": 6.0652657, "q2_2008": 7.8131704, "q2_2009": 8.3857441, "q2_2010": 8.8152332, "q2_2011": 8.0914688, "q2_2012": 8.3109913, "q2_2013": null, "q2_2014": 8.7114334, "q2_2015": 7.136322, "q2_2016": 7.6602988, "q2_2017": 5.8696928, "q2_2018": 4.9280124, "q2_2019": 5.9326296, "jail_19992008": 8.8150406, "jail_20092019": 7.3841829 }, "geometry": null },
{ "type": "Feature", "properties": { "fips": 45091, "geo_geo_id": "0500000US45091", "name": "York County, South Carolina", "county_code": "US_SC_YORK", "total_pop": 282987, "poverty_rate": 8.4364195, "prop_black": 18.900162, "prop_male": 9.9460402, "prop_withoutba": 63.14724, "prop_18to34": 20.609426, "q2_1999": 6.6025848, "q2_2000": 6.2175407, "q2_2001": 6.0622363, "q2_2002": 6.264833, "q2_2003": 7.4451408, "q2_2004": 7.7390914, "q2_2005": 6.9830618, "q2_2006": 4.7485561, "q2_2007": 7.2124839, "q2_2008": 7.1475763, "q2_2009": 7.1764412, "q2_2010": 6.6919146, "q2_2011": 7.0460267, "q2_2012": 6.3148398, "q2_2013": 6.0721607, "q2_2014": 5.8173728, "q2_2015": 5.5967817, "q2_2016": 6.3274198, "q2_2017": 6.0366926, "q2_2018": 5.5073295, "q2_2019": 5.7985349, "jail_19992008": 6.6423106, "jail_20092019": 6.2168651 }, "geometry": null }
]
}
