{
"type": "FeatureCollection",
"name": "feb2025",
"crs": { "type": "name", "properties": { "name": "urn:ogc:def:crs:OGC:1.3:CRS84" } },
"features": [
{ "type": "Feature", "properties": { "event_id_cnty": "PSE77300", "event_date": "2/1/2025", "year": 2025, "time_precision": 2, "disorder_type": "Political violence", "event_type": "Explosions/Remote violence", "sub_event_type": "Shelling/artillery/missile attack", "actor1": "Military Forces of Israel (2022-)", "assoc_actor_1": null, "inter1": 8, "actor2": "Civilians (Palestine)", "assoc_actor_2": null, "inter2": 7, "interaction": 78, "civilian_targeting": "Civilian targeting", "iso": 275, "region": "Middle East", "country": "Palestine", "admin1": "Gaza Strip", "admin2": "Gaza City", "admin3": null, "location": "Gaza", "latitude": 31.5045, "longitude": 34.4743, "geo_precision": 2, "source": "New York Times", "source_scale": "International", "notes": "Around 1 February 2025, the Israeli navy shelled an aid convey on the coastal raod of Gaza City (Gaza Strip). Casualties unknown. The UN issued an accusation, and the IDF said it would look into it. This event involved violence over aid.", "fatalities": 0, "tags": null, "timestamp": 1759790002 }, "geometry": { "type": "Point", "coordinates": [ 34.4743, 31.5045 ] } },
{ "type": "Feature", "properties": { "event_id_cnty": "PSE67324", "event_date": "2/2/2025", "year": 2025, "time_precision": 1, "disorder_type": "Political violence", "event_type": "Explosions/Remote violence", "sub_event_type": "Air/drone strike", "actor1": "Military Forces of Israel (2022-)", "assoc_actor_1": null, "inter1": 8, "actor2": "Civilians (Palestine)", "assoc_actor_2": null, "inter2": 7, "interaction": 78, "civilian_targeting": "Civilian targeting", "iso": 275, "region": "Middle East", "country": "Palestine", "admin1": "Gaza Strip", "admin2": "Deir El Balah", "admin3": null, "location": "An Nusayrat - West", "latitude": 31.4525, "longitude": 34.3756, "geo_precision": 2, "source": "Arutz Sheva; Dunia Al Watan; Liveuamap; Quds News Network; Times of Israel", "source_scale": "Local partner-New media", "notes": "On 2 February 2025, an Israeli drone targeted a vehicle on Al Rasheed road coded to An Nusayrat - West (Deir El Balah, Gaza Strip) killing a child and injuring others. According to Israeli media, the vehicle 'violated the ceasefire as it passed along a route that is not the agreed inspection route'. These events occurred during the first stage of a 42-day ceasefire that began on 19 January 2025.", "fatalities": 1, "tags": null, "timestamp": 1753956656 }, "geometry": { "type": "Point", "coordinates": [ 34.3756, 31.4525 ] } },
{ "type": "Feature", "properties": { "event_id_cnty": "PSE67356", "event_date": "2/2/2025", "year": 2025, "time_precision": 1, "disorder_type": "Political violence", "event_type": "Violence against civilians", "sub_event_type": "Attack", "actor1": "Military Forces of Israel (2022-)", "assoc_actor_1": null, "inter1": 8, "actor2": "Civilians (Palestine)", "assoc_actor_2": null, "inter2": 7, "interaction": 78, "civilian_targeting": "Civilian targeting", "iso": 275, "region": "Middle East", "country": "Palestine", "admin1": "Gaza Strip", "admin2": "Rafah", "admin3": null, "location": "Shokat as Sufi", "latitude": 31.2586, "longitude": 34.2824, "geo_precision": 1, "source": "Palestine News and Information Agency; Twitter", "source_scale": "New media-National", "notes": "On 2 February 2025, Israeli forces shot and killed a Palestinian man in Shokat as Sufi (Rafah, Gaza Strip). According to Israeli media, Israeli forces 'fired warning shots after Palestinian suspects approached' them. This event occurred during the first stage of a 42-day ceasefire that began on 19 January 2025.", "fatalities": 1, "tags": null, "timestamp": 1753956656 }, "geometry": { "type": "Point", "coordinates": [ 34.2824, 31.2586 ] } },
{ "type": "Feature", "properties": { "event_id_cnty": "PSE67495", "event_date": "2/2/2025", "year": 2025, "time_precision": 1, "disorder_type": "Political violence", "event_type": "Explosions/Remote violence", "sub_event_type": "Shelling/artillery/missile attack", "actor1": "Military Forces of Israel (2022-)", "assoc_actor_1": null, "inter1": 8, "actor2": "Civilians (Palestine)", "assoc_actor_2": null, "inter2": 7, "interaction": 78, "civilian_targeting": "Civilian targeting", "iso": 275, "region": "Middle East", "country": "Palestine", "admin1": "Gaza Strip", "admin2": "Deir El Balah", "admin3": null, "location": "Al Burayj", "latitude": 31.4394, "longitude": 34.4031, "geo_precision": 2, "source": "Al Ghad (Jordan); Dunia Al Watan", "source_scale": "National-Regional", "notes": "On 2 February 2025, Israeli artillery fired towards Palestinian houses in east of Al Burayj (Deir El Balah, Gaza Strip). There were no casualties. This event occurred during the first stage of a 42-day ceasefire that began on 19 January 2025.", "fatalities": 0, "tags": null, "timestamp": 1753956656 }, "geometry": { "type": "Point", "coordinates": [ 34.4031, 31.4394 ] } },
{ "type": "Feature", "properties": { "event_id_cnty": "PSE67334", "event_date": "2/2/2025", "year": 2025, "time_precision": 1, "disorder_type": "Political violence", "event_type": "Explosions/Remote violence", "sub_event_type": "Air/drone strike", "actor1": "Military Forces of Israel (2022-)", "assoc_actor_1": null, "inter1": 8, "actor2": "Civilians (Palestine)", "assoc_actor_2": "Refugees/IDPs (Palestine)", "inter2": 7, "interaction": 78, "civilian_targeting": "Civilian targeting", "iso": 275, "region": "Middle East", "country": "Palestine", "admin1": "Gaza Strip", "admin2": "Gaza City", "admin3": null, "location": "Al Mughraqa", "latitude": 31.4675, "longitude": 34.4097, "geo_precision": 2, "source": "Arutz Sheva; Dunia Al Watan; Liveuamap; Quds News Network; Times of Israel", "source_scale": "Local partner-New media", "notes": "On 2 February 2025, an Israeli done dropped two bombs on an animal-drawn cart near Jisr Wadi Gaza, coded to Al Mughraqa (Gaza City, Gaza Strip). There were no casualties. These events occurred during the first stage of a 42-day ceasefire that began on 19 January 2025.", "fatalities": 0, "tags": null, "timestamp": 1753956656 }, "geometry": { "type": "Point", "coordinates": [ 34.4097, 31.4675 ] } },
{ "type": "Feature", "properties": { "event_id_cnty": "PSE67325", "event_date": "2/2/2025", "year": 2025, "time_precision": 1, "disorder_type": "Political violence", "event_type": "Explosions/Remote violence", "sub_event_type": "Air/drone strike", "actor1": "Military Forces of Israel (2022-)", "assoc_actor_1": null, "inter1": 8, "actor2": "Civilians (Palestine)", "assoc_actor_2": null, "inter2": 7, "interaction": 78, "civilian_targeting": "Civilian targeting", "iso": 275, "region": "Middle East", "country": "Palestine", "admin1": "Gaza Strip", "admin2": "Khan Yunis", "admin3": null, "location": "Abasan al Jadidah", "latitude": 31.3416, "longitude": 34.3459, "geo_precision": 2, "source": "Palestinian Ministry of Health; Quds News Network", "source_scale": "Other-National", "notes": "On 2 February 2025, an Israeli drone dropped a bomb on a group of Palestinians in east of Abasan al Jadidah (Khan Yunis, Gaza Strip) injuring two people. Israeli artillery also fired towards that location. Casualties unknown. These events occurred during the first stage of a 42-day ceasefire that began on 19 January 2025. [Palestinian Ministry of Health reported 7 fatalities between 30 January - 2 February 2025. 3 fatalities not attributed to specific events added to this event on 2 February 2025.]", "fatalities": 3, "tags": null, "timestamp": 1753956656 }, "geometry": { "type": "Point", "coordinates": [ 34.3459, 31.3416 ] } },
{ "type": "Feature", "properties": { "event_id_cnty": "PSE67360", "event_date": "2/3/2025", "year": 2025, "time_precision": 1, "disorder_type": "Political violence", "event_type": "Violence against civilians", "sub_event_type": "Attack", "actor1": "Military Forces of Israel (2022-)", "assoc_actor_1": null, "inter1": 8, "actor2": "Civilians (Palestine)", "assoc_actor_2": "Fishers (Palestine)", "inter2": 7, "interaction": 78, "civilian_targeting": "Civilian targeting", "iso": 275, "region": "Middle East", "country": "Palestine", "admin1": "Gaza Strip", "admin2": "Gaza City", "admin3": null, "location": "Coast of Gaza City", "latitude": 31.5304, "longitude": 34.4215, "geo_precision": 2, "source": "Quds News Network; Twitter", "source_scale": "New media-National", "notes": "On 3 February 2025, Israeli gunboats opened fire [likely toward fishing boats] off the Coast of Gaza City (Gaza City, Gaza Strip) causing a leg injury to a fisherman. According to Israeli media, Israeli forces 'fired warning shots after Palestinian suspects approached' them. This event occurred during the first stage of a 42-day ceasefire that began on 19 January 2025.", "fatalities": 0, "tags": null, "timestamp": 1753956656 }, "geometry": { "type": "Point", "coordinates": [ 34.4215, 31.5304 ] } },
{ "type": "Feature", "properties": { "event_id_cnty": "PSE67498", "event_date": "2/3/2025", "year": 2025, "time_precision": 1, "disorder_type": "Political violence", "event_type": "Violence against civilians", "sub_event_type": "Attack", "actor1": "Military Forces of Israel (2022-)", "assoc_actor_1": null, "inter1": 8, "actor2": "Civilians (Palestine)", "assoc_actor_2": null, "inter2": 7, "interaction": 78, "civilian_targeting": "Civilian targeting", "iso": 275, "region": "Middle East", "country": "Palestine", "admin1": "Gaza Strip", "admin2": "Khan Yunis", "admin3": null, "location": "Al Fukhari", "latitude": 31.2952, "longitude": 34.3332, "geo_precision": 1, "source": "Palestinian Ministry of Health; Quds News Network; Twitter", "source_scale": "Other-New media", "notes": "On 3 February 2025, Israeli forces stationed on the buffer zone opened fire [live ammunition] towards Palestinian houses and lands in eastern Al Fukhari (Khan Yunis, Gaza Strip). Casualties unknown. According to Israeli media, Israeli forces 'fired warning shots after Palestinian suspects approached' them. This event occurred during the first stage of a 42-day ceasefire that began on 19 January 2025. [Palestinian Ministry of Health reported 2 fatalities on 3 February 2025. 2 fatalities not attributed to specific events added to this event.]", "fatalities": 2, "tags": null, "timestamp": 1753956656 }, "geometry": { "type": "Point", "coordinates": [ 34.3332, 31.2952 ] } },
{ "type": "Feature", "properties": { "event_id_cnty": "PSE67361", "event_date": "2/4/2025", "year": 2025, "time_precision": 1, "disorder_type": "Political violence", "event_type": "Violence against civilians", "sub_event_type": "Attack", "actor1": "Military Forces of Israel (2022-)", "assoc_actor_1": null, "inter1": 8, "actor2": "Civilians (Palestine)", "assoc_actor_2": "Fishers (Palestine)", "inter2": 7, "interaction": 78, "civilian_targeting": "Civilian targeting", "iso": 275, "region": "Middle East", "country": "Palestine", "admin1": "Gaza Strip", "admin2": "Gaza City", "admin3": null, "location": "Coast of Gaza City", "latitude": 31.5304, "longitude": 34.4215, "geo_precision": 2, "source": "Ma'an News Agency; Twitter", "source_scale": "New media-National", "notes": "On 4 February 2025, Israeli warships fired at a Palestinian vessel at sea [likely fishing boat], off the Coast of Gaza City (Gaza City, Gaza Strip), with warning shots, which made it return to the coast of Gaza. There were no casualties. This event occurred during the first stage of a 42-day ceasefire that began on 19 January 2025.", "fatalities": 0, "tags": null, "timestamp": 1753956656 }, "geometry": { "type": "Point", "coordinates": [ 34.4215, 31.5304 ] } },
{ "type": "Feature", "properties": { "event_id_cnty": "PSE67332", "event_date": "2/5/2025", "year": 2025, "time_precision": 1, "disorder_type": "Political violence", "event_type": "Explosions/Remote violence", "sub_event_type": "Air/drone strike", "actor1": "Military Forces of Israel (2022-)", "assoc_actor_1": null, "inter1": 8, "actor2": "Civilians (Palestine)", "assoc_actor_2": null, "inter2": 7, "interaction": 78, "civilian_targeting": "Civilian targeting", "iso": 275, "region": "Middle East", "country": "Palestine", "admin1": "Gaza Strip", "admin2": "Rafah", "admin3": null, "location": "Shokat as Sufi", "latitude": 31.2586, "longitude": 34.2824, "geo_precision": 2, "source": "Israeli Defense Forces; Palestinian Ministry of Health; Quds News Network; Twitter", "source_scale": "Other-New media", "notes": "On 5 February 2025, an Israeli drone dropped a bomb east of Shokat as Sufi (Rafah, Gaza Strip), resulting in a residential home burning. Casualties unknown. The IDF claimed that they targeted possible suspects [likely in this location]. This event occurred during the first stage of a 42-day ceasefire that began on 19 January 2024. [Palestinian Ministry of Health reported 15 fatalities between 4 - 6 February 2025. 10 fatalities not attributed to specific events split across 2 events on 5 February. 5 fatalities coded to this event.]", "fatalities": 5, "tags": null, "timestamp": 1753956656 }, "geometry": { "type": "Point", "coordinates": [ 34.2824, 31.2586 ] } },
{ "type": "Feature", "properties": { "event_id_cnty": "PSE67376", "event_date": "2/5/2025", "year": 2025, "time_precision": 1, "disorder_type": "Political violence", "event_type": "Violence against civilians", "sub_event_type": "Attack", "actor1": "Military Forces of Israel (2022-)", "assoc_actor_1": null, "inter1": 8, "actor2": "Civilians (Palestine)", "assoc_actor_2": null, "inter2": 7, "interaction": 78, "civilian_targeting": "Civilian targeting", "iso": 275, "region": "Middle East", "country": "Palestine", "admin1": "Gaza Strip", "admin2": "Khan Yunis", "admin3": null, "location": "Abasan al Kabirah", "latitude": 31.3191, "longitude": 34.3401, "geo_precision": 2, "source": "Palestine News and Information Agency", "source_scale": "National", "notes": "On 5 February 2025, Israeli forces opened fire at a group of people east of Khan Yunis governorate, coded to Abasan al Kabirah (Khan Yunis, Gaza Strip), resulting in three men killed. The IDF claimed that they targeted possible suspects. This event occurred during the first stage of a 42-day ceasefire that began on 19 January 2024.", "fatalities": 3, "tags": null, "timestamp": 1753956656 }, "geometry": { "type": "Point", "coordinates": [ 34.3401, 31.3191 ] } },
{ "type": "Feature", "properties": { "event_id_cnty": "PSE67331", "event_date": "2/5/2025", "year": 2025, "time_precision": 1, "disorder_type": "Political violence", "event_type": "Explosions/Remote violence", "sub_event_type": "Air/drone strike", "actor1": "Military Forces of Israel (2022-)", "assoc_actor_1": null, "inter1": 8, "actor2": "Civilians (Palestine)", "assoc_actor_2": null, "inter2": 7, "interaction": 78, "civilian_targeting": "Civilian targeting", "iso": 275, "region": "Middle East", "country": "Palestine", "admin1": "Gaza Strip", "admin2": "Rafah", "admin3": null, "location": "Rafah", "latitude": 31.287, "longitude": 34.2595, "geo_precision": 1, "source": "Liveuamap; Palestine News and Information Agency", "source_scale": "Local partner-New media", "notes": "On 5 February 2025, an Israeli drone struck a target in Rafah City (Rafah, Gaza Strip). Casualties unknown. Also, artillery opened fire close to Midan Al Odeh in the centre of Rafah City, resulting in one child being killed. The IDF claimed that they targeted possible suspects. This event occurred during the first stage of a 42-day ceasefire that began on 19 January 2024.", "fatalities": 1, "tags": null, "timestamp": 1762829569 }, "geometry": { "type": "Point", "coordinates": [ 34.2595, 31.287 ] } },
{ "type": "Feature", "properties": { "event_id_cnty": "PSE67333", "event_date": "2/5/2025", "year": 2025, "time_precision": 1, "disorder_type": "Political violence", "event_type": "Explosions/Remote violence", "sub_event_type": "Air/drone strike", "actor1": "Military Forces of Israel (2022-)", "assoc_actor_1": null, "inter1": 8, "actor2": "Civilians (Palestine)", "assoc_actor_2": null, "inter2": 7, "interaction": 78, "civilian_targeting": "Civilian targeting", "iso": 275, "region": "Middle East", "country": "Palestine", "admin1": "Gaza Strip", "admin2": "Rafah", "admin3": null, "location": "Al Junainah", "latitude": 31.2642, "longitude": 34.2636, "geo_precision": 1, "source": "Ma'an News Agency; Palestinian Ministry of Health", "source_scale": "Other-National", "notes": "On 5 February 2025, an Israeli drone [Quadcopter] opened fire close to Abad Al Rahman Mosque in Al Junainah neighbourhood (Rafah, Gaza Strip), resulting in a residential home burning. Casualties unknown. This event occurred during the first stage of a 42-day ceasefire that began on 19 January 2024. [Palestinian Ministry of Health reported 15 fatalities between 4 - 6 February 2025. 10 fatalities not attributed to specific events split across 2 events on 5 February. 5 fatalities coded to this event.]", "fatalities": 5, "tags": null, "timestamp": 1753956656 }, "geometry": { "type": "Point", "coordinates": [ 34.2636, 31.2642 ] } },
{ "type": "Feature", "properties": { "event_id_cnty": "PSE67377", "event_date": "2/6/2025", "year": 2025, "time_precision": 1, "disorder_type": "Political violence", "event_type": "Violence against civilians", "sub_event_type": "Attack", "actor1": "Military Forces of Israel (2022-)", "assoc_actor_1": null, "inter1": 8, "actor2": "Civilians (Palestine)", "assoc_actor_2": null, "inter2": 7, "interaction": 78, "civilian_targeting": "Civilian targeting", "iso": 275, "region": "Middle East", "country": "Palestine", "admin1": "Gaza Strip", "admin2": "Gaza City", "admin3": null, "location": "Juhr ad Dik", "latitude": 31.4557, "longitude": 34.4372, "geo_precision": 2, "source": "Quds News Network", "source_scale": "National", "notes": "On 6 February 2025, an Israeli sniper opened fire near the Nezarim corridor, likely the eastern section of Nezarim, coded to Juhr ad Dik (Gaza City, Gaza Strip), resulting in one person killed. This event occurred during the first stage of a 42-day ceasefire that began on 19 January 2024.", "fatalities": 1, "tags": null, "timestamp": 1753956656 }, "geometry": { "type": "Point", "coordinates": [ 34.4372, 31.4557 ] } },
{ "type": "Feature", "properties": { "event_id_cnty": "PSE67493", "event_date": "2/7/2025", "year": 2025, "time_precision": 1, "disorder_type": "Political violence", "event_type": "Explosions/Remote violence", "sub_event_type": "Remote explosive/landmine/IED", "actor1": "Military Forces of Israel (2022-)", "assoc_actor_1": null, "inter1": 8, "actor2": "Civilians (Palestine)", "assoc_actor_2": null, "inter2": 7, "interaction": 78, "civilian_targeting": "Civilian targeting", "iso": 275, "region": "Middle East", "country": "Palestine", "admin1": "Gaza Strip", "admin2": "Rafah", "admin3": null, "location": "Rafah", "latitude": 31.287, "longitude": 34.2595, "geo_precision": 1, "source": "Palestine News and Information Agency", "source_scale": "National", "notes": "On 7 February 2025, unexploded ordnance [UXO] presumably from Israeli forces exploded and killed a child in Rafah (Rafah, Gaza Strip). This event occurred during the first stage of a 42-day ceasefire that began on 19 January 2024.", "fatalities": 1, "tags": null, "timestamp": 1762829569 }, "geometry": { "type": "Point", "coordinates": [ 34.2595, 31.287 ] } },
{ "type": "Feature", "properties": { "event_id_cnty": "PSE67512", "event_date": "2/8/2025", "year": 2025, "time_precision": 1, "disorder_type": "Political violence", "event_type": "Explosions/Remote violence", "sub_event_type": "Shelling/artillery/missile attack", "actor1": "Military Forces of Israel (2022-)", "assoc_actor_1": null, "inter1": 8, "actor2": "Civilians (Palestine)", "assoc_actor_2": null, "inter2": 7, "interaction": 78, "civilian_targeting": "Civilian targeting", "iso": 275, "region": "Middle East", "country": "Palestine", "admin1": "Gaza Strip", "admin2": "Khan Yunis", "admin3": null, "location": "Al Qararah", "latitude": 31.3739, "longitude": 34.3409, "geo_precision": 1, "source": "Israeli Defense Forces; PLO Negotiations Affairs Department; Quds News Network", "source_scale": "Other-National", "notes": "On 8 February 2025, Israeli artillery fired heavily towards the eastern Al Qararah town (Khan Yunis, Gaza Strip), resulting in one killed. The IDF claimed that they were targeting a suspicious person moving towards them [likely in this location]. This event occurred during the first stage of a 42-day ceasefire that began on 19 January 2024.", "fatalities": 1, "tags": null, "timestamp": 1753956656 }, "geometry": { "type": "Point", "coordinates": [ 34.3409, 31.3739 ] } },
{ "type": "Feature", "properties": { "event_id_cnty": "PSE67517", "event_date": "2/8/2025", "year": 2025, "time_precision": 1, "disorder_type": "Political violence", "event_type": "Explosions/Remote violence", "sub_event_type": "Air/drone strike", "actor1": "Military Forces of Israel (2022-)", "assoc_actor_1": null, "inter1": 8, "actor2": "Civilians (Palestine)", "assoc_actor_2": null, "inter2": 7, "interaction": 78, "civilian_targeting": "Civilian targeting", "iso": 275, "region": "Middle East", "country": "Palestine", "admin1": "Gaza Strip", "admin2": "Gaza City", "admin3": null, "location": "Gaza - Ash Shaykh Ijlin", "latitude": 31.5098, "longitude": 34.4274, "geo_precision": 2, "source": "Israeli Defense Forces; Palestinian Ministry of Health; Quds News Network", "source_scale": "Other-National", "notes": "On 8 February 2025, an Israeli drone fired at a vehicle [likely moving] on Al Rashid street coded to Gaza - Ash Shaykh Ijlin (Gaza City, Gaza Strip), casualties unknown. The IDF announced that they were targeting moving vehicles which per the ceasefire agreement are not allowed to move through the coastal road. This event occurred during the first stage of a 42-day-long ceasefire that began on 19 January 2024. [Palestinian Ministry of Health reported 5 fatalities between 7 - 8 February 2025. 3 fatalities not attributed to specific events added to this event.]", "fatalities": 3, "tags": null, "timestamp": 1753956656 }, "geometry": { "type": "Point", "coordinates": [ 34.4274, 31.5098 ] } },
{ "type": "Feature", "properties": { "event_id_cnty": "PSE67527", "event_date": "2/9/2025", "year": 2025, "time_precision": 1, "disorder_type": "Political violence", "event_type": "Explosions/Remote violence", "sub_event_type": "Shelling/artillery/missile attack", "actor1": "Military Forces of Israel (2022-)", "assoc_actor_1": null, "inter1": 8, "actor2": "Civilians (Palestine)", "assoc_actor_2": "Fishers (Palestine)", "inter2": 7, "interaction": 78, "civilian_targeting": "Civilian targeting", "iso": 275, "region": "Middle East", "country": "Palestine", "admin1": "Gaza Strip", "admin2": null, "admin3": null, "location": "Coast of Gaza Strip", "latitude": 31.5032, "longitude": 34.2877, "geo_precision": 3, "source": "Israeli Defense Forces; Twitter", "source_scale": "Other-New media", "notes": "On 9 February 2025, Israeli naval forces fired at a vessel [likely fishers] off of the Coast of Gaza Strip (Gaza Strip), the vessel returned to the coast of Gaza, with no casualties [likely]. The IDF stated that they fired warning shots at a suspicious vessel which violated restrictions imposed in the Gaza Strip maritime area. This event occurred during the first stage of a 42-day ceasefire that began on 19 January 2024.", "fatalities": 0, "tags": null, "timestamp": 1753956656 }, "geometry": { "type": "Point", "coordinates": [ 34.2877, 31.5032 ] } },
{ "type": "Feature", "properties": { "event_id_cnty": "PSE67525", "event_date": "2/9/2025", "year": 2025, "time_precision": 1, "disorder_type": "Political violence", "event_type": "Violence against civilians", "sub_event_type": "Attack", "actor1": "Military Forces of Israel (2022-)", "assoc_actor_1": null, "inter1": 8, "actor2": "Civilians (Palestine)", "assoc_actor_2": "Women (Palestine)", "inter2": 7, "interaction": 78, "civilian_targeting": "Civilian targeting", "iso": 275, "region": "Middle East", "country": "Palestine", "admin1": "Gaza Strip", "admin2": "Khan Yunis", "admin3": null, "location": "Al Qararah", "latitude": 31.3739, "longitude": 34.3409, "geo_precision": 1, "source": "Palestine News and Information Agency", "source_scale": "National", "notes": "On 9 February 2025, Israeli forces opened fire at eastern Al Qararah town (Khan Yunis, Gaza Strip), resulting in one elderly woman killed. This event occurred during the first stage of a 42-day ceasefire that began on 19 January 2024.", "fatalities": 1, "tags": null, "timestamp": 1753956656 }, "geometry": { "type": "Point", "coordinates": [ 34.3409, 31.3739 ] } },
{ "type": "Feature", "properties": { "event_id_cnty": "PSE67529", "event_date": "2/9/2025", "year": 2025, "time_precision": 1, "disorder_type": "Political violence", "event_type": "Violence against civilians", "sub_event_type": "Attack", "actor1": "Military Forces of Israel (2022-)", "assoc_actor_1": null, "inter1": 8, "actor2": "Civilians (Palestine)", "assoc_actor_2": "Aid Workers (Palestine); Palestinian Red Crescent Society", "inter2": 7, "interaction": 78, "civilian_targeting": "Civilian targeting", "iso": 275, "region": "Middle East", "country": "Palestine", "admin1": "Gaza Strip", "admin2": "Gaza City", "admin3": null, "location": "Gaza - At Turukman", "latitude": 31.4864, "longitude": 34.4738, "geo_precision": 2, "source": "Liveuamap; Quds News Network", "source_scale": "Local partner-New media", "notes": "On 9 February 2025, Israeli forces fired at [likely a moving vehicle] of the Palestinian Red Crescent Society while they were heading to assist injured persons, east of Az Zaytun neighbourhood coded to Gaza - At Turukman (Gaza City, Gaza Strip), one of the injured civilians succumbed to his injuries. This event occurred during the first stage of a 42-day ceasefire that began on 19 January 2024.", "fatalities": 1, "tags": null, "timestamp": 1762292062 }, "geometry": { "type": "Point", "coordinates": [ 34.4738, 31.4864 ] } },
{ "type": "Feature", "properties": { "event_id_cnty": "PSE67530", "event_date": "2/9/2025", "year": 2025, "time_precision": 1, "disorder_type": "Political violence", "event_type": "Violence against civilians", "sub_event_type": "Attack", "actor1": "Military Forces of Israel (2022-)", "assoc_actor_1": null, "inter1": 8, "actor2": "Civilians (Palestine)", "assoc_actor_2": null, "inter2": 7, "interaction": 78, "civilian_targeting": "Civilian targeting", "iso": 275, "region": "Middle East", "country": "Palestine", "admin1": "Gaza Strip", "admin2": "Gaza City", "admin3": null, "location": "Kuwait Roundabout", "latitude": 31.48, "longitude": 34.4423, "geo_precision": 1, "source": "Israeli Defense Forces; Palestine News and Information Agency", "source_scale": "Other-National", "notes": "On 9 February 2025, Israeli forces opened fire towards a group of people while they were returning to their homes, close to Al Melkeh site, near eastern Kuwait Roundabout (Gaza City, Gaza Strip), killing 3 individuals. The IDF claimed that they targeted suspicious persons [likely in this location]. This event occurred during the first stage of a 42-day ceasefire that began on 19 January 2024.", "fatalities": 3, "tags": null, "timestamp": 1753956656 }, "geometry": { "type": "Point", "coordinates": [ 34.4423, 31.48 ] } },
{ "type": "Feature", "properties": { "event_id_cnty": "PSE67542", "event_date": "2/10/2025", "year": 2025, "time_precision": 1, "disorder_type": "Political violence", "event_type": "Violence against civilians", "sub_event_type": "Attack", "actor1": "Military Forces of Israel (2022-)", "assoc_actor_1": null, "inter1": 8, "actor2": "Civilians (Palestine)", "assoc_actor_2": null, "inter2": 7, "interaction": 78, "civilian_targeting": "Civilian targeting", "iso": 275, "region": "Middle East", "country": "Palestine", "admin1": "Gaza Strip", "admin2": "Gaza City", "admin3": null, "location": "Gaza - Shujaiyya", "latitude": 31.4988, "longitude": 34.4699, "geo_precision": 1, "source": "Palestine News and Information Agency", "source_scale": "National", "notes": "On 10 February 2025, Israeli forces opened fire at a group of people in Gaza - Shujaiyya (Gaza City, Gaza Strip), resulting in one killed. This event occurred during the first stage of a 42-day ceasefire that began on 19 January 2024.", "fatalities": 1, "tags": null, "timestamp": 1759790002 }, "geometry": { "type": "Point", "coordinates": [ 34.4699, 31.4988 ] } },
{ "type": "Feature", "properties": { "event_id_cnty": "PSE67548", "event_date": "2/10/2025", "year": 2025, "time_precision": 1, "disorder_type": "Political violence", "event_type": "Violence against civilians", "sub_event_type": "Attack", "actor1": "Military Forces of Israel (2022-)", "assoc_actor_1": null, "inter1": 8, "actor2": "Civilians (Palestine)", "assoc_actor_2": null, "inter2": 7, "interaction": 78, "civilian_targeting": "Civilian targeting", "iso": 275, "region": "Middle East", "country": "Palestine", "admin1": "Gaza Strip", "admin2": "Khan Yunis", "admin3": null, "location": "Khuzaa", "latitude": 31.3069, "longitude": 34.3572, "geo_precision": 1, "source": "Quds News Network", "source_scale": "National", "notes": "On 10 February 2025, Israeli forces opened fire eastern Khuzaa (Khan Yunis, Gaza Strip), resulting in one injury. This event occurred during the first stage of a 42-day ceasefire that began on 19 January 2024.", "fatalities": 0, "tags": null, "timestamp": 1753956656 }, "geometry": { "type": "Point", "coordinates": [ 34.3572, 31.3069 ] } },
{ "type": "Feature", "properties": { "event_id_cnty": "PSE67555", "event_date": "2/10/2025", "year": 2025, "time_precision": 1, "disorder_type": "Political violence", "event_type": "Violence against civilians", "sub_event_type": "Attack", "actor1": "Military Forces of Israel (2022-)", "assoc_actor_1": null, "inter1": 8, "actor2": "Civilians (Palestine)", "assoc_actor_2": null, "inter2": 7, "interaction": 78, "civilian_targeting": "Civilian targeting", "iso": 275, "region": "Middle East", "country": "Palestine", "admin1": "Gaza Strip", "admin2": "Rafah", "admin3": null, "location": "Tal as Sultan", "latitude": 31.3098, "longitude": 34.2414, "geo_precision": 1, "source": "Palestine News and Information Agency", "source_scale": "National", "notes": "On 10 February 2025, Israeli snipers opened fire at a group of people in Al Odeh area in Rafah City coded to Tal as Sultan (Rafah, Gaza Strip), resulting three injuries. This event occurred during the first stage of a 42-day ceasefire that began on 19 January 2024.", "fatalities": 0, "tags": null, "timestamp": 1762829569 }, "geometry": { "type": "Point", "coordinates": [ 34.2414, 31.3098 ] } },
{ "type": "Feature", "properties": { "event_id_cnty": "PSE67561", "event_date": "2/11/2025", "year": 2025, "time_precision": 1, "disorder_type": "Political violence", "event_type": "Explosions/Remote violence", "sub_event_type": "Shelling/artillery/missile attack", "actor1": "Military Forces of Israel (2022-)", "assoc_actor_1": null, "inter1": 8, "actor2": "Civilians (Palestine)", "assoc_actor_2": null, "inter2": 7, "interaction": 78, "civilian_targeting": "Civilian targeting", "iso": 275, "region": "Middle East", "country": "Palestine", "admin1": "Gaza Strip", "admin2": "Khan Yunis", "admin3": null, "location": "Al Fukhari", "latitude": 31.2952, "longitude": 34.3332, "geo_precision": 1, "source": "Quds News Network", "source_scale": "National", "notes": "On 11 February 2025, Israeli artillery heavily shelled residential homes and lands eastern Al Fukhari town (Khan Yunis, Gaza Strip), casualties unknown. This event occurred during the first stage of a 42-day ceasefire that began on 19 January 2024.", "fatalities": 0, "tags": null, "timestamp": 1753956656 }, "geometry": { "type": "Point", "coordinates": [ 34.3332, 31.2952 ] } },
{ "type": "Feature", "properties": { "event_id_cnty": "PSE67567", "event_date": "2/11/2025", "year": 2025, "time_precision": 1, "disorder_type": "Political violence", "event_type": "Explosions/Remote violence", "sub_event_type": "Air/drone strike", "actor1": "Military Forces of Israel (2022-)", "assoc_actor_1": null, "inter1": 8, "actor2": "Civilians (Palestine)", "assoc_actor_2": null, "inter2": 7, "interaction": 78, "civilian_targeting": "Civilian targeting", "iso": 275, "region": "Middle East", "country": "Palestine", "admin1": "Gaza Strip", "admin2": "Gaza City", "admin3": null, "location": "Gaza - Ash Shaykh Ijlin", "latitude": 31.5098, "longitude": 34.4274, "geo_precision": 2, "source": "Liveuamap", "source_scale": "Local partner-New media", "notes": "On 11 February 2025, an Israeli drone dropped a bomb on a vehicle [likely moving] on Al Rashid Street coded to Gaza - Ash Shaykh Ijlin (Gaza City, Gaza Strip) Strip), casualties unknown. This event occurred during the first stage of a 42-day ceasefire that began on 19 January 2024.", "fatalities": 0, "tags": null, "timestamp": 1753956656 }, "geometry": { "type": "Point", "coordinates": [ 34.4274, 31.5098 ] } },
{ "type": "Feature", "properties": { "event_id_cnty": "PSE67575", "event_date": "2/11/2025", "year": 2025, "time_precision": 1, "disorder_type": "Political violence", "event_type": "Explosions/Remote violence", "sub_event_type": "Shelling/artillery/missile attack", "actor1": "Military Forces of Israel (2022-)", "assoc_actor_1": null, "inter1": 8, "actor2": "Civilians (Palestine)", "assoc_actor_2": null, "inter2": 7, "interaction": 78, "civilian_targeting": "Civilian targeting", "iso": 275, "region": "Middle East", "country": "Palestine", "admin1": "Gaza Strip", "admin2": "Rafah", "admin3": null, "location": "Tal as Sultan", "latitude": 31.3098, "longitude": 34.2414, "geo_precision": 2, "source": "Dunia Al Watan; Liveuamap; Palestine News and Information Agency", "source_scale": "Local partner-New media", "notes": "On 11 February 2025, an Israeli tank opened fire close to Al Saudi neighbourhood west of Rafah, coded to Tal as Sultan (Rafah, Gaza Strip), resulting in one man being killed. This event occurred during the first stage of a 42-day ceasefire that began on 19 January 2024.", "fatalities": 1, "tags": null, "timestamp": 1762829569 }, "geometry": { "type": "Point", "coordinates": [ 34.2414, 31.3098 ] } },
{ "type": "Feature", "properties": { "event_id_cnty": "PSE67576", "event_date": "2/11/2025", "year": 2025, "time_precision": 1, "disorder_type": "Political violence", "event_type": "Violence against civilians", "sub_event_type": "Attack", "actor1": "Military Forces of Israel (2022-)", "assoc_actor_1": null, "inter1": 8, "actor2": "Civilians (Palestine)", "assoc_actor_2": null, "inter2": 7, "interaction": 78, "civilian_targeting": "Civilian targeting", "iso": 275, "region": "Middle East", "country": "Palestine", "admin1": "Gaza Strip", "admin2": "Rafah", "admin3": null, "location": "Tal as Sultan", "latitude": 31.3098, "longitude": 34.2414, "geo_precision": 1, "source": "Palestine News and Information Agency", "source_scale": "National", "notes": "On 11 February 2025, Israeli forces opened fire close to Midan Al Odeh in central Rafah coded to Tal as Sultan (Rafah, Gaza Strip), resulting in two men being injured. This event occurred during the first stage of a 42-day ceasefire that began on 19 January 2024.", "fatalities": 0, "tags": null, "timestamp": 1762829569 }, "geometry": { "type": "Point", "coordinates": [ 34.2414, 31.3098 ] } },
{ "type": "Feature", "properties": { "event_id_cnty": "PSE67577", "event_date": "2/11/2025", "year": 2025, "time_precision": 1, "disorder_type": "Political violence", "event_type": "Violence against civilians", "sub_event_type": "Attack", "actor1": "Military Forces of Israel (2022-)", "assoc_actor_1": null, "inter1": 8, "actor2": "Civilians (Palestine)", "assoc_actor_2": null, "inter2": 7, "interaction": 78, "civilian_targeting": "Civilian targeting", "iso": 275, "region": "Middle East", "country": "Palestine", "admin1": "Gaza Strip", "admin2": "Rafah", "admin3": null, "location": "Tal as Sultan", "latitude": 31.3098, "longitude": 34.2414, "geo_precision": 1, "source": "Ma'an News Agency; Quds News Network", "source_scale": "National", "notes": "On 11 February 2025, Israeli forces opened fire in Tal as Sultan (Rafah, Gaza Strip), resulting in one man killed [died due to his injuries]. This event occurred during the first stage of a 42-day ceasefire that began on 19 January 2024.", "fatalities": 1, "tags": null, "timestamp": 1762829569 }, "geometry": { "type": "Point", "coordinates": [ 34.2414, 31.3098 ] } },
{ "type": "Feature", "properties": { "event_id_cnty": "PSE67568", "event_date": "2/11/2025", "year": 2025, "time_precision": 1, "disorder_type": "Political violence", "event_type": "Violence against civilians", "sub_event_type": "Attack", "actor1": "Military Forces of Israel (2022-)", "assoc_actor_1": null, "inter1": 8, "actor2": "Civilians (Palestine)", "assoc_actor_2": null, "inter2": 7, "interaction": 78, "civilian_targeting": "Civilian targeting", "iso": 275, "region": "Middle East", "country": "Palestine", "admin1": "Gaza Strip", "admin2": "Gaza City", "admin3": null, "location": "Gaza - Ijdeedeh", "latitude": 31.4984, "longitude": 34.4978, "geo_precision": 1, "source": "Ma'an News Agency", "source_scale": "National", "notes": "On 11 February 2025, Israeli forces opened fire east of Shujaiyya coded to Gaza - Ijdeedeh (Gaza City, Gaza Strip), resulting in one man killed. This event occurred during the first stage of a 42-day ceasefire that began on 19 January 2024.", "fatalities": 1, "tags": null, "timestamp": 1753956656 }, "geometry": { "type": "Point", "coordinates": [ 34.4978, 31.4984 ] } },
{ "type": "Feature", "properties": { "event_id_cnty": "PSE67582", "event_date": "2/12/2025", "year": 2025, "time_precision": 1, "disorder_type": "Political violence", "event_type": "Violence against civilians", "sub_event_type": "Attack", "actor1": "Military Forces of Israel (2022-)", "assoc_actor_1": null, "inter1": 8, "actor2": "Civilians (Palestine)", "assoc_actor_2": null, "inter2": 7, "interaction": 78, "civilian_targeting": "Civilian targeting", "iso": 275, "region": "Middle East", "country": "Palestine", "admin1": "Gaza Strip", "admin2": "Rafah", "admin3": null, "location": "East Garage", "latitude": 31.2788, "longitude": 34.256, "geo_precision": 1, "source": "Ma'an News Agency", "source_scale": "National", "notes": "On 12 February 2025, an Israeli sniper opened fire at two men in Al Karaj Al Sharqi (East Garage) (Rafah, Gaza Strip), resulting in injuries [one man was shot twice in the back and the other was shot in the foot]. This event occurred during the first stage of a 42-day ceasefire that began on 19 January 2024.", "fatalities": 0, "tags": null, "timestamp": 1753956656 }, "geometry": { "type": "Point", "coordinates": [ 34.256, 31.2788 ] } },
{ "type": "Feature", "properties": { "event_id_cnty": "PSE67586", "event_date": "2/12/2025", "year": 2025, "time_precision": 1, "disorder_type": "Political violence", "event_type": "Explosions/Remote violence", "sub_event_type": "Air/drone strike", "actor1": "Military Forces of Israel (2022-)", "assoc_actor_1": null, "inter1": 8, "actor2": "Civilians (Palestine)", "assoc_actor_2": null, "inter2": 7, "interaction": 78, "civilian_targeting": "Civilian targeting", "iso": 275, "region": "Middle East", "country": "Palestine", "admin1": "Gaza Strip", "admin2": "Rafah", "admin3": null, "location": "Shokat as Sufi", "latitude": 31.2586, "longitude": 34.2824, "geo_precision": 1, "source": "Quds News Network", "source_scale": "National", "notes": "On 12 February 2025, Israeli warplanes struck Shokat as Sufi town (Rafah, Gaza Strip), resulting in one man being killed and another injured. This event occurred during the first stage of a 42-day ceasefire that began on 19 January 2024.", "fatalities": 1, "tags": null, "timestamp": 1753956656 }, "geometry": { "type": "Point", "coordinates": [ 34.2824, 31.2586 ] } },
{ "type": "Feature", "properties": { "event_id_cnty": "PSE67590", "event_date": "2/13/2025", "year": 2025, "time_precision": 1, "disorder_type": "Political violence", "event_type": "Violence against civilians", "sub_event_type": "Attack", "actor1": "Military Forces of Israel (2022-)", "assoc_actor_1": null, "inter1": 8, "actor2": "Civilians (Palestine)", "assoc_actor_2": null, "inter2": 7, "interaction": 78, "civilian_targeting": "Civilian targeting", "iso": 275, "region": "Middle East", "country": "Palestine", "admin1": "Gaza Strip", "admin2": "Rafah", "admin3": null, "location": "Al Mawasi (Rafah)", "latitude": 31.3294, "longitude": 34.2299, "geo_precision": 1, "source": "Newpress", "source_scale": "National", "notes": "On 13 February 2025, Israeli forces opened fire in Al Mawasi (Rafah) (Rafah, Gaza Strip), resulting in one man injured. This event occurred during the first stage of a 42-day ceasefire that began on 19 January 2024.", "fatalities": 0, "tags": null, "timestamp": 1762829569 }, "geometry": { "type": "Point", "coordinates": [ 34.2299, 31.3294 ] } },
{ "type": "Feature", "properties": { "event_id_cnty": "PSE67591", "event_date": "2/13/2025", "year": 2025, "time_precision": 1, "disorder_type": "Political violence", "event_type": "Explosions/Remote violence", "sub_event_type": "Remote explosive/landmine/IED", "actor1": "Military Forces of Israel (2022-)", "assoc_actor_1": null, "inter1": 8, "actor2": "Civilians (Palestine)", "assoc_actor_2": null, "inter2": 7, "interaction": 78, "civilian_targeting": "Civilian targeting", "iso": 275, "region": "Middle East", "country": "Palestine", "admin1": "Gaza Strip", "admin2": "Deir El Balah", "admin3": null, "location": "An Nusayrat", "latitude": 31.4486, "longitude": 34.3925, "geo_precision": 1, "source": "Palestine News and Information Agency", "source_scale": "National", "notes": "On 13 February 2025, an unexploded ordnance [UXO] presumably from Israeli forces exploded and killed a child in An Nusayrat (Deir El Balah, Gaza Strip). This event occurred during the first stage of a 42-day ceasefire that began on 19 January 2024.", "fatalities": 1, "tags": null, "timestamp": 1753956656 }, "geometry": { "type": "Point", "coordinates": [ 34.3925, 31.4486 ] } },
{ "type": "Feature", "properties": { "event_id_cnty": "PSE67736", "event_date": "2/13/2025", "year": 2025, "time_precision": 1, "disorder_type": "Political violence", "event_type": "Explosions/Remote violence", "sub_event_type": "Shelling/artillery/missile attack", "actor1": "Unidentified Armed Group (Palestine)", "assoc_actor_1": null, "inter1": 3, "actor2": "Civilians (Palestine)", "assoc_actor_2": null, "inter2": 7, "interaction": 37, "civilian_targeting": "Civilian targeting", "iso": 275, "region": "Middle East", "country": "Palestine", "admin1": "Gaza Strip", "admin2": "Deir El Balah", "admin3": null, "location": "Al Burayj", "latitude": 31.4394, "longitude": 34.4031, "geo_precision": 2, "source": "Israeli Defense Forces; Twitter", "source_scale": "Other-New media", "notes": "On 13 February 2025, a missile launched by an unidentified Palestinian armed group from Al Burayj (Deir El Balah, Gaza Strip), failed to cross into Israel and fell in Gaza and killed a Palestinian child. This event occurred during the first stage of a 42-day ceasefire that began on 19 January 2024.", "fatalities": 1, "tags": null, "timestamp": 1754411177 }, "geometry": { "type": "Point", "coordinates": [ 34.4031, 31.4394 ] } },
{ "type": "Feature", "properties": { "event_id_cnty": "PSE67588", "event_date": "2/13/2025", "year": 2025, "time_precision": 1, "disorder_type": "Political violence", "event_type": "Explosions/Remote violence", "sub_event_type": "Shelling/artillery/missile attack", "actor1": "Military Forces of Israel (2022-)", "assoc_actor_1": null, "inter1": 8, "actor2": "Civilians (Palestine)", "assoc_actor_2": null, "inter2": 7, "interaction": 78, "civilian_targeting": "Civilian targeting", "iso": 275, "region": "Middle East", "country": "Palestine", "admin1": "Gaza Strip", "admin2": "Khan Yunis", "admin3": null, "location": "Al Fukhari", "latitude": 31.2952, "longitude": 34.3332, "geo_precision": 1, "source": "Palestinian Ministry of Health; Quds News Network", "source_scale": "Other-National", "notes": "On 13 February 2025, Israeli artillery opened fire towards residential homes and lands eastern Al Fukhari Town (Khan Yunis, Gaza Strip), casualties unknown. Additionally, Israeli forces conducted explosions close to the security fence in the same location [casualties unknown]. This event occurred during the first stage of a 42-day ceasefire that began on 19 January 2024. [Palestinian Ministry of Health reported 37 fatalities between 9 - 14 February 2025. 22 fatalities not attributed to specific events added to this event.]", "fatalities": 22, "tags": null, "timestamp": 1753956656 }, "geometry": { "type": "Point", "coordinates": [ 34.3332, 31.2952 ] } },
{ "type": "Feature", "properties": { "event_id_cnty": "PSE67599", "event_date": "2/14/2025", "year": 2025, "time_precision": 1, "disorder_type": "Political violence", "event_type": "Explosions/Remote violence", "sub_event_type": "Shelling/artillery/missile attack", "actor1": "Military Forces of Israel (2022-)", "assoc_actor_1": null, "inter1": 8, "actor2": "Civilians (Palestine)", "assoc_actor_2": "Fishers (Palestine)", "inter2": 7, "interaction": 78, "civilian_targeting": "Civilian targeting", "iso": 275, "region": "Middle East", "country": "Palestine", "admin1": "Gaza Strip", "admin2": "Gaza City", "admin3": null, "location": "Gaza - Harbor", "latitude": 31.5428, "longitude": 34.4575, "geo_precision": 2, "source": "Palestine News and Information Agency", "source_scale": "National", "notes": "On 14 February 2025, Israeli naval boats fired two shells off the coast of Gaza, opposite to Gaza - Harbor (Gaza City, Gaza Strip), resulting in two fishermen being injured. This event occurred during the first stage of a 42-day ceasefire that began on 19 January 2024.", "fatalities": 0, "tags": null, "timestamp": 1753956656 }, "geometry": { "type": "Point", "coordinates": [ 34.4575, 31.5428 ] } },
{ "type": "Feature", "properties": { "event_id_cnty": "PSE67600", "event_date": "2/14/2025", "year": 2025, "time_precision": 1, "disorder_type": "Political violence", "event_type": "Violence against civilians", "sub_event_type": "Attack", "actor1": "Military Forces of Israel (2022-)", "assoc_actor_1": null, "inter1": 8, "actor2": "Civilians (Palestine)", "assoc_actor_2": null, "inter2": 7, "interaction": 78, "civilian_targeting": "Civilian targeting", "iso": 275, "region": "Middle East", "country": "Palestine", "admin1": "Gaza Strip", "admin2": "Khan Yunis", "admin3": null, "location": "Khuzaa", "latitude": 31.3069, "longitude": 34.3572, "geo_precision": 1, "source": "Palestine News and Information Agency", "source_scale": "National", "notes": "On 14 February 2025, Israeli forces opened fire in Khuzaa Town (Khan Yunis, Gaza Strip), resulting in one man being injured. This event occurred during the first stage of a 42-day ceasefire that began on 19 January 2024.", "fatalities": 0, "tags": null, "timestamp": 1753956656 }, "geometry": { "type": "Point", "coordinates": [ 34.3572, 31.3069 ] } },
{ "type": "Feature", "properties": { "event_id_cnty": "PSE69459", "event_date": "2/15/2025", "year": 2025, "time_precision": 1, "disorder_type": "Political violence", "event_type": "Explosions/Remote violence", "sub_event_type": "Air/drone strike", "actor1": "Military Forces of Israel (2022-)", "assoc_actor_1": null, "inter1": 8, "actor2": "Civilians (Palestine)", "assoc_actor_2": "Labor Group (Palestine)", "inter2": 7, "interaction": 78, "civilian_targeting": "Civilian targeting", "iso": 275, "region": "Middle East", "country": "Palestine", "admin1": "Gaza Strip", "admin2": "Gaza City", "admin3": null, "location": "Al Mughraqa", "latitude": 31.4675, "longitude": 34.4097, "geo_precision": 1, "source": "Israeli Defense Forces; Palestine News and Information Agency; Twitter", "source_scale": "Other-New media", "notes": "On 15 February 2025, an Israeli drone struck a bulldozer that was removing rubble in Al Mughraqa town (Gaza City, Gaza Strip), resulting in two injuries. The IDF stated that they fired warning shots at several vehicles [likely here] moving north without permission. This event occurred during the first stage of a 42-day ceasefire that began on 19 January 2025.", "fatalities": 0, "tags": null, "timestamp": 1753956656 }, "geometry": { "type": "Point", "coordinates": [ 34.4097, 31.4675 ] } },
{ "type": "Feature", "properties": { "event_id_cnty": "PSE69464", "event_date": "2/15/2025", "year": 2025, "time_precision": 1, "disorder_type": "Political violence", "event_type": "Explosions/Remote violence", "sub_event_type": "Air/drone strike", "actor1": "Military Forces of Israel (2022-)", "assoc_actor_1": null, "inter1": 8, "actor2": "Civilians (Palestine)", "assoc_actor_2": null, "inter2": 7, "interaction": 78, "civilian_targeting": "Civilian targeting", "iso": 275, "region": "Middle East", "country": "Palestine", "admin1": "Gaza Strip", "admin2": "Rafah", "admin3": null, "location": "Shokat as Sufi", "latitude": 31.2586, "longitude": 34.2824, "geo_precision": 1, "source": "Quds News Network", "source_scale": "National", "notes": "On 15 February 2025, an Israeli drone struck Abu Halawa area in Shokat as Sufi town (Rafah, Gaza Strip), resulting in one killed. This event occurred during the first stage of a 42-day ceasefire that began on 19 January 2025.", "fatalities": 1, "tags": null, "timestamp": 1753956656 }, "geometry": { "type": "Point", "coordinates": [ 34.2824, 31.2586 ] } },
{ "type": "Feature", "properties": { "event_id_cnty": "PSE69545", "event_date": "2/15/2025", "year": 2025, "time_precision": 1, "disorder_type": "Political violence", "event_type": "Explosions/Remote violence", "sub_event_type": "Air/drone strike", "actor1": "Military Forces of Israel (2022-)", "assoc_actor_1": null, "inter1": 8, "actor2": "Police Forces of Palestine (2007-) Gaza Strip", "assoc_actor_2": "Hamas Movement", "inter2": 1, "interaction": 18, "civilian_targeting": null, "iso": 275, "region": "Middle East", "country": "Palestine", "admin1": "Gaza Strip", "admin2": "Rafah", "admin3": null, "location": "Yibna", "latitude": 31.2842, "longitude": 34.2482, "geo_precision": 2, "source": "Palestine News and Information Agency; Quds News Network", "source_scale": "National", "notes": "On 15 February 2025, Israeli drone struck a group of Police Forces of Palestine (Gaza) and aid security committees east of Rafah City coded to Yibna (Rafah, Gaza Strip), resulting in one killed due to their injuries [likely in this location] and others injured. This event occurred during the first stage of a 42-day ceasefire that began on 19 January 2025. This event involved violence over aid.", "fatalities": 1, "tags": null, "timestamp": 1756156113 }, "geometry": { "type": "Point", "coordinates": [ 34.2482, 31.2842 ] } },
{ "type": "Feature", "properties": { "event_id_cnty": "PSE69465", "event_date": "2/16/2025", "year": 2025, "time_precision": 1, "disorder_type": "Political violence", "event_type": "Explosions/Remote violence", "sub_event_type": "Air/drone strike", "actor1": "Military Forces of Israel (2022-)", "assoc_actor_1": null, "inter1": 8, "actor2": "Civilians (Palestine)", "assoc_actor_2": null, "inter2": 7, "interaction": 78, "civilian_targeting": "Civilian targeting", "iso": 275, "region": "Middle East", "country": "Palestine", "admin1": "Gaza Strip", "admin2": "Gaza City", "admin3": null, "location": "Al Mughraqa", "latitude": 31.4675, "longitude": 34.4097, "geo_precision": 1, "source": "Liveuamap; Quds News Network; Twitter", "source_scale": "Local partner-New media", "notes": "On 16 February 2025, Israeli warplanes struck a civilian vehicle [likely moving] in Al Mughraqa (Gaza City, Gaza Strip), casualties unknown. Additionally, Israeli warplanes launched another airstrike in the same location [casualties unknown]. The IDF stated that they fired warning shots at vehicles moving north without authorization. This event occurred during the first stage of a 42-day ceasefire that began on 19 January 2025.", "fatalities": 0, "tags": null, "timestamp": 1753956656 }, "geometry": { "type": "Point", "coordinates": [ 34.4097, 31.4675 ] } },
{ "type": "Feature", "properties": { "event_id_cnty": "PSE69490", "event_date": "2/16/2025", "year": 2025, "time_precision": 1, "disorder_type": "Political violence", "event_type": "Explosions/Remote violence", "sub_event_type": "Air/drone strike", "actor1": "Military Forces of Israel (2022-)", "assoc_actor_1": null, "inter1": 8, "actor2": "Civilians (Palestine)", "assoc_actor_2": null, "inter2": 7, "interaction": 78, "civilian_targeting": "Civilian targeting", "iso": 275, "region": "Middle East", "country": "Palestine", "admin1": "Gaza Strip", "admin2": "Deir El Balah", "admin3": null, "location": "An Nusayrat", "latitude": 31.4486, "longitude": 34.3925, "geo_precision": 1, "source": "Liveuamap", "source_scale": "Local partner-New media", "notes": "On 16 February 2025, an Israeli drone struck An Nusayrat Camp (Deir El Balah, Gaza Strip), resulting in one killed and another injured. This event occurred during the first stage of a 42-day ceasefire that began on 19 January 2025.", "fatalities": 1, "tags": null, "timestamp": 1753956656 }, "geometry": { "type": "Point", "coordinates": [ 34.3925, 31.4486 ] } },
{ "type": "Feature", "properties": { "event_id_cnty": "PSE69546", "event_date": "2/16/2025", "year": 2025, "time_precision": 1, "disorder_type": "Political violence", "event_type": "Explosions/Remote violence", "sub_event_type": "Air/drone strike", "actor1": "Military Forces of Israel (2022-)", "assoc_actor_1": null, "inter1": 8, "actor2": "Police Forces of Palestine (2007-) Gaza Strip", "assoc_actor_2": "Hamas Movement", "inter2": 1, "interaction": 18, "civilian_targeting": null, "iso": 275, "region": "Middle East", "country": "Palestine", "admin1": "Gaza Strip", "admin2": "Rafah", "admin3": null, "location": "Shokat as Sufi", "latitude": 31.2586, "longitude": 34.2824, "geo_precision": 1, "source": "Ma'an News Agency; Twitter", "source_scale": "New media-National", "notes": "On 16 February 2025, an Israeli drone fired a missile at Shokat as Sufi (Rafah, Gaza Strip), killing three members of the Police Forces and injuring others while they were assisting in aid distribution. The IDF stated that the police officers were approaching Israeli forces in the area. This event occurred during the first stage of a 42-day ceasefire that began on 19 January 2025. This event involved violence over aid.", "fatalities": 3, "tags": null, "timestamp": 1753956656 }, "geometry": { "type": "Point", "coordinates": [ 34.2824, 31.2586 ] } },
{ "type": "Feature", "properties": { "event_id_cnty": "PSE69491", "event_date": "2/17/2025", "year": 2025, "time_precision": 1, "disorder_type": "Political violence", "event_type": "Explosions/Remote violence", "sub_event_type": "Air/drone strike", "actor1": "Military Forces of Israel (2022-)", "assoc_actor_1": null, "inter1": 8, "actor2": "Civilians (Palestine)", "assoc_actor_2": null, "inter2": 7, "interaction": 78, "civilian_targeting": "Civilian targeting", "iso": 275, "region": "Middle East", "country": "Palestine", "admin1": "Gaza Strip", "admin2": "Deir El Balah", "admin3": null, "location": "An Nusayrat - West", "latitude": 31.4525, "longitude": 34.3756, "geo_precision": 1, "source": "Israeli Defense Forces; Quds News Network", "source_scale": "Other-National", "notes": "On 17 February 2025, an Israeli drone struck the vicinity of a civilian vehicle [likely moving] at Al Rashid street northwest of An Nusayrat in An Nusayrat - West (Deir El Balah, Gaza Strip), casualties unknown. The IDF stated that they struck vehicles moving north without authorization. This event occurred during the first stage of a 42-day ceasefire that began on 19 January 2025.", "fatalities": 0, "tags": null, "timestamp": 1753956656 }, "geometry": { "type": "Point", "coordinates": [ 34.3756, 31.4525 ] } },
{ "type": "Feature", "properties": { "event_id_cnty": "PSE69492", "event_date": "2/18/2025", "year": 2025, "time_precision": 1, "disorder_type": "Political violence", "event_type": "Explosions/Remote violence", "sub_event_type": "Air/drone strike", "actor1": "Military Forces of Israel (2022-)", "assoc_actor_1": null, "inter1": 8, "actor2": "Civilians (Palestine)", "assoc_actor_2": null, "inter2": 7, "interaction": 78, "civilian_targeting": "Civilian targeting", "iso": 275, "region": "Middle East", "country": "Palestine", "admin1": "Gaza Strip", "admin2": "Gaza City", "admin3": null, "location": "Gaza - Ash Shaykh Ijlin", "latitude": 31.5098, "longitude": 34.4274, "geo_precision": 2, "source": "Israeli Defense Forces; Newpress", "source_scale": "Other-National", "notes": "On 18 February 2025, an Israeli drone fired at a vehicle [likely moving] in the vicinity of Al Bayder on Al Rashid street coded to Gaza - Ash Shaykh Ijlin (Gaza City, Gaza Strip), casualties unknown. The IDF announced that they were targeting moving vehicles which per the ceasefire agreement are not allowed to move through the coastal road. This event occurred during the first stage of a 42-day-long ceasefire that began on 19 January 2025.", "fatalities": 0, "tags": null, "timestamp": 1753956656 }, "geometry": { "type": "Point", "coordinates": [ 34.4274, 31.5098 ] } },
{ "type": "Feature", "properties": { "event_id_cnty": "PSE69525", "event_date": "2/18/2025", "year": 2025, "time_precision": 1, "disorder_type": "Political violence", "event_type": "Violence against civilians", "sub_event_type": "Attack", "actor1": "Military Forces of Israel (2022-)", "assoc_actor_1": null, "inter1": 8, "actor2": "Civilians (Palestine)", "assoc_actor_2": null, "inter2": 7, "interaction": 78, "civilian_targeting": "Civilian targeting", "iso": 275, "region": "Middle East", "country": "Palestine", "admin1": "Gaza Strip", "admin2": "Rafah", "admin3": null, "location": "Shokat as Sufi", "latitude": 31.2586, "longitude": 34.2824, "geo_precision": 1, "source": "Palestine News and Information Agency", "source_scale": "National", "notes": "On 18 February 2025, Israeli forces opened fire eastern Shokat as Sufi Town (Rafah, Gaza Strip), resulting in three injured. This event occurred during the first stage of a 42-day ceasefire that began on 19 January 2025.", "fatalities": 0, "tags": null, "timestamp": 1753956656 }, "geometry": { "type": "Point", "coordinates": [ 34.2824, 31.2586 ] } },
{ "type": "Feature", "properties": { "event_id_cnty": "PSE69540", "event_date": "2/18/2025", "year": 2025, "time_precision": 1, "disorder_type": "Political violence", "event_type": "Violence against civilians", "sub_event_type": "Attack", "actor1": "Military Forces of Israel (2022-)", "assoc_actor_1": null, "inter1": 8, "actor2": "Civilians (Palestine)", "assoc_actor_2": null, "inter2": 7, "interaction": 78, "civilian_targeting": "Civilian targeting", "iso": 275, "region": "Middle East", "country": "Palestine", "admin1": "Gaza Strip", "admin2": "North Gaza", "admin3": null, "location": "Beit Hanoun - Hay Al Masreen", "latitude": 31.5356, "longitude": 34.5513, "geo_precision": 1, "source": "Quds News Network", "source_scale": "National", "notes": "On 18 February 2025, Israeli forces opened fire in Beit Hanoun, coded to Beit Hanoun - Hay Al Masreen (North Gaza, Gaza Strip), resulting in one critical injury. This event occurred during the first stage of a 42-day ceasefire that began on 19 January 2025. This event likely occurred in the buffer zone.", "fatalities": 0, "tags": null, "timestamp": 1753956656 }, "geometry": { "type": "Point", "coordinates": [ 34.5513, 31.5356 ] } },
{ "type": "Feature", "properties": { "event_id_cnty": "PSE69541", "event_date": "2/18/2025", "year": 2025, "time_precision": 1, "disorder_type": "Political violence", "event_type": "Violence against civilians", "sub_event_type": "Attack", "actor1": "Military Forces of Israel (2022-)", "assoc_actor_1": null, "inter1": 8, "actor2": "Civilians (Palestine)", "assoc_actor_2": null, "inter2": 7, "interaction": 78, "civilian_targeting": "Civilian targeting", "iso": 275, "region": "Middle East", "country": "Palestine", "admin1": "Gaza Strip", "admin2": "Rafah", "admin3": null, "location": "Yasser Arafat International Airport", "latitude": 31.2431, "longitude": 34.2759, "geo_precision": 1, "source": "Quds News Network", "source_scale": "National", "notes": "On 18 February 2025, Israeli forces opened fire toward the old Gaza airport [destroyed] east of Rafah in Yasser Arafat International Airport (Rafah, Gaza Strip), resulting in one killed. This event occurred during the first stage of a 42-day ceasefire that began on 19 January 2025. [This event likely occurred in the buffer zone.]", "fatalities": 1, "tags": null, "timestamp": 1753956656 }, "geometry": { "type": "Point", "coordinates": [ 34.2759, 31.2431 ] } },
{ "type": "Feature", "properties": { "event_id_cnty": "PSE69538", "event_date": "2/18/2025", "year": 2025, "time_precision": 1, "disorder_type": "Political violence", "event_type": "Violence against civilians", "sub_event_type": "Attack", "actor1": "Military Forces of Israel (2022-)", "assoc_actor_1": null, "inter1": 8, "actor2": "Civilians (Palestine)", "assoc_actor_2": null, "inter2": 7, "interaction": 78, "civilian_targeting": "Civilian targeting", "iso": 275, "region": "Middle East", "country": "Palestine", "admin1": "Gaza Strip", "admin2": "Rafah", "admin3": null, "location": "Al Junainah", "latitude": 31.2642, "longitude": 34.2636, "geo_precision": 1, "source": "Israeli Defense Forces; Newpress; Quds News Network", "source_scale": "Other-National", "notes": "On 18 February 2025, Israeli forces opened fire near Midan Al Odeh in Al Junainah (Rafah, Gaza Strip), resulting in two killed [one child] and others injured. The IDF stated that they fired warning shots at suspects moving towards them, ultimately killing one [likely in this location]. This event occurred during the first stage of a 42-day ceasefire that began on 19 January 2025.", "fatalities": 2, "tags": null, "timestamp": 1753956656 }, "geometry": { "type": "Point", "coordinates": [ 34.2636, 31.2642 ] } },
{ "type": "Feature", "properties": { "event_id_cnty": "PSE69510", "event_date": "2/20/2025", "year": 2025, "time_precision": 1, "disorder_type": "Political violence", "event_type": "Explosions/Remote violence", "sub_event_type": "Air/drone strike", "actor1": "Military Forces of Israel (2022-)", "assoc_actor_1": null, "inter1": 8, "actor2": "Civilians (Palestine)", "assoc_actor_2": null, "inter2": 7, "interaction": 78, "civilian_targeting": "Civilian targeting", "iso": 275, "region": "Middle East", "country": "Palestine", "admin1": "Gaza Strip", "admin2": "Khan Yunis", "admin3": null, "location": "Abasan al Kabirah", "latitude": 31.3191, "longitude": 34.3401, "geo_precision": 1, "source": "Israeli Defense Forces; Quds News Network", "source_scale": "Other-National", "notes": "On 20 February 2025, an Israeli drone opened fire at a group of people in Mattab Al Touyour area in Abasan al Kabirah (Khan Yunis, Gaza Strip), no casualties [likely]. This event occurred during the first stage of a 42-day ceasefire that began on 19 January 2025. This event likely occurred at the buffer zone.", "fatalities": 0, "tags": null, "timestamp": 1753956656 }, "geometry": { "type": "Point", "coordinates": [ 34.3401, 31.3191 ] } },
{ "type": "Feature", "properties": { "event_id_cnty": "PSE69621", "event_date": "2/20/2025", "year": 2025, "time_precision": 1, "disorder_type": "Political violence", "event_type": "Explosions/Remote violence", "sub_event_type": "Shelling/artillery/missile attack", "actor1": "Military Forces of Israel (2022-)", "assoc_actor_1": null, "inter1": 8, "actor2": "Civilians (Palestine)", "assoc_actor_2": null, "inter2": 7, "interaction": 78, "civilian_targeting": "Civilian targeting", "iso": 275, "region": "Middle East", "country": "Palestine", "admin1": "Gaza Strip", "admin2": "Rafah", "admin3": null, "location": "Yibna", "latitude": 31.2842, "longitude": 34.2482, "geo_precision": 2, "source": "Ma'an News Agency", "source_scale": "National", "notes": "On 20 February 2025, Israeli tanks opened fire east of Rafah city, coded to Yibna (Rafah, Gaza Strip), resulting in one child killed [likely in this location]. This event occurred during the first stage of a 42-day ceasefire that began on 19 January 2025.", "fatalities": 1, "tags": null, "timestamp": 1753956656 }, "geometry": { "type": "Point", "coordinates": [ 34.2482, 31.2842 ] } },
{ "type": "Feature", "properties": { "event_id_cnty": "PSE69603", "event_date": "2/20/2025", "year": 2025, "time_precision": 1, "disorder_type": "Political violence", "event_type": "Violence against civilians", "sub_event_type": "Attack", "actor1": "Military Forces of Israel (2022-)", "assoc_actor_1": null, "inter1": 8, "actor2": "Civilians (Palestine)", "assoc_actor_2": null, "inter2": 7, "interaction": 78, "civilian_targeting": "Civilian targeting", "iso": 275, "region": "Middle East", "country": "Palestine", "admin1": "Gaza Strip", "admin2": "Gaza City", "admin3": null, "location": "Gaza - Ijdeedeh", "latitude": 31.4984, "longitude": 34.4978, "geo_precision": 2, "source": "Israeli Defense Forces; Liveuamap; Ma'an News Agency; Palestine News and Information Agency", "source_scale": "Local partner-New media", "notes": "On 20 February 2025, an Israeli sniper opened fire east of Gaza City coded to Gaza - Ijdeedeh (Gaza City, Gaza Strip), resulting in one killed. The IDF stated that they fired at several suspects, one of whom continued approaching them until he was killed [likely in this location] This event occurred during the first stage of a 42-day ceasefire that began on 19 January 2025.", "fatalities": 1, "tags": null, "timestamp": 1753956656 }, "geometry": { "type": "Point", "coordinates": [ 34.4978, 31.4984 ] } },
{ "type": "Feature", "properties": { "event_id_cnty": "PSE69646", "event_date": "2/21/2025", "year": 2025, "time_precision": 1, "disorder_type": "Political violence", "event_type": "Explosions/Remote violence", "sub_event_type": "Shelling/artillery/missile attack", "actor1": "Military Forces of Israel (2022-)", "assoc_actor_1": null, "inter1": 8, "actor2": "Civilians (Palestine)", "assoc_actor_2": null, "inter2": 7, "interaction": 78, "civilian_targeting": "Civilian targeting", "iso": 275, "region": "Middle East", "country": "Palestine", "admin1": "Gaza Strip", "admin2": "Rafah", "admin3": null, "location": "Al Junainah", "latitude": 31.2642, "longitude": 34.2636, "geo_precision": 1, "source": "Palestine News and Information Agency; Quds News Network", "source_scale": "National", "notes": "On 21 February 2025, Israeli forces [likely tanks] opened fire toward Al Junainah (Rafah, Gaza Strip), killing a woman while was in her house. This event occurred during the first stage of a 42-day ceasefire that began on 19 January 2025.", "fatalities": 1, "tags": null, "timestamp": 1753956656 }, "geometry": { "type": "Point", "coordinates": [ 34.2636, 31.2642 ] } },
{ "type": "Feature", "properties": { "event_id_cnty": "PSE77359", "event_date": "2/21/2025", "year": 2025, "time_precision": 2, "disorder_type": "Political violence", "event_type": "Violence against civilians", "sub_event_type": "Attack", "actor1": "Unidentified Communal Militia (Palestine)", "assoc_actor_1": null, "inter1": 4, "actor2": "Civilians (Palestine)", "assoc_actor_2": "Labor Group (Palestine)", "inter2": 7, "interaction": 47, "civilian_targeting": "Civilian targeting", "iso": 275, "region": "Middle East", "country": "Palestine", "admin1": "Gaza Strip", "admin2": "Rafah", "admin3": null, "location": "Rafah", "latitude": 31.287, "longitude": 34.2595, "geo_precision": 2, "source": "New York Times", "source_scale": "International", "notes": "Around 21 February 2025, organized looters threw an axe at a driver's cabin and cement blocks at aid trucks in an attempt to loot it east of Rafah area (Gaza Strip). Casualties unknown. This event involved violence over aid.", "fatalities": 0, "tags": null, "timestamp": 1762829569 }, "geometry": { "type": "Point", "coordinates": [ 34.2595, 31.287 ] } },
{ "type": "Feature", "properties": { "event_id_cnty": "PSE69689", "event_date": "2/22/2025", "year": 2025, "time_precision": 1, "disorder_type": "Political violence", "event_type": "Violence against civilians", "sub_event_type": "Attack", "actor1": "Military Forces of Israel (2022-)", "assoc_actor_1": null, "inter1": 8, "actor2": "Civilians (Palestine)", "assoc_actor_2": null, "inter2": 7, "interaction": 78, "civilian_targeting": "Civilian targeting", "iso": 275, "region": "Middle East", "country": "Palestine", "admin1": "Gaza Strip", "admin2": "Rafah", "admin3": null, "location": "As Salam", "latitude": 31.2678, "longitude": 34.2567, "geo_precision": 1, "source": "Palestinian Ministry of Health; Quds News Network", "source_scale": "Other-National", "notes": "On 22 February 2025, Israeli forces fired heavily towards residential houses in As Salam (Rafah, Gaza Strip). Casualties unknown. This event occurred during the first stage of a 42-day ceasefire that began on 19 January 2025. [Palestinian Ministry of Health reported 34 fatalities between 19 - 22 February 2025. 27 fatalities not attributed to specific events split across 2 events on 22 February. 14 fatalities coded to this event.]", "fatalities": 14, "tags": null, "timestamp": 1753956656 }, "geometry": { "type": "Point", "coordinates": [ 34.2567, 31.2678 ] } },
{ "type": "Feature", "properties": { "event_id_cnty": "PSE69690", "event_date": "2/22/2025", "year": 2025, "time_precision": 1, "disorder_type": "Political violence", "event_type": "Violence against civilians", "sub_event_type": "Attack", "actor1": "Military Forces of Israel (2022-)", "assoc_actor_1": null, "inter1": 8, "actor2": "Civilians (Palestine)", "assoc_actor_2": null, "inter2": 7, "interaction": 78, "civilian_targeting": "Civilian targeting", "iso": 275, "region": "Middle East", "country": "Palestine", "admin1": "Gaza Strip", "admin2": "Rafah", "admin3": null, "location": "Brazil Camp", "latitude": 31.2718, "longitude": 34.2532, "geo_precision": 2, "source": "Palestinian Ministry of Health; Quds News Network", "source_scale": "Other-National", "notes": "On 22 February 2025, Israeli forces fired heavily towards residential houses in Brazil neighborhood, coded to Brazil Camp (Rafah, Gaza Strip). Casualties unknown. This event occurred during the first stage of a 42-day ceasefire that began on 19 January 2025. [Palestinian Ministry of Health reported 34 fatalities between 19 - 22 February 2025. 27 fatalities not attributed to specific events split across 2 events on 22 February. 13 fatalities coded to this event.]", "fatalities": 13, "tags": null, "timestamp": 1753956656 }, "geometry": { "type": "Point", "coordinates": [ 34.2532, 31.2718 ] } },
{ "type": "Feature", "properties": { "event_id_cnty": "PSE69705", "event_date": "2/23/2025", "year": 2025, "time_precision": 1, "disorder_type": "Political violence", "event_type": "Explosions/Remote violence", "sub_event_type": "Air/drone strike", "actor1": "Military Forces of Israel (2022-)", "assoc_actor_1": null, "inter1": 8, "actor2": "Civilians (Palestine)", "assoc_actor_2": null, "inter2": 7, "interaction": 78, "civilian_targeting": "Civilian targeting", "iso": 275, "region": "Middle East", "country": "Palestine", "admin1": "Gaza Strip", "admin2": "Rafah", "admin3": null, "location": "Tal as Sultan", "latitude": 31.3098, "longitude": 34.2414, "geo_precision": 1, "source": "Ma'an News Agency; Quds News Network", "source_scale": "National", "notes": "On 23 February 2025, an Israeli drone opened fire on Al Qadsiyah junction in Tal as Sultan (Rafah, Gaza Strip) injuring one person, and Israeli tanks also opened fired injuring another person near Canada Foundation in Tal as Sultan. These events occurred during the first stage of a 42-day ceasefire that began on 19 January 2025.", "fatalities": 0, "tags": null, "timestamp": 1762829569 }, "geometry": { "type": "Point", "coordinates": [ 34.2414, 31.3098 ] } },
{ "type": "Feature", "properties": { "event_id_cnty": "PSE69706", "event_date": "2/23/2025", "year": 2025, "time_precision": 1, "disorder_type": "Political violence", "event_type": "Violence against civilians", "sub_event_type": "Attack", "actor1": "Military Forces of Israel (2022-)", "assoc_actor_1": null, "inter1": 8, "actor2": "Civilians (Palestine)", "assoc_actor_2": null, "inter2": 7, "interaction": 78, "civilian_targeting": "Civilian targeting", "iso": 275, "region": "Middle East", "country": "Palestine", "admin1": "Gaza Strip", "admin2": "Rafah", "admin3": null, "location": "Tal as Sultan", "latitude": 31.3098, "longitude": 34.2414, "geo_precision": 2, "source": "Ma'an News Agency; Quds News Network", "source_scale": "National", "notes": "On 23 February 2025, Israeli forces opened fire in Saudi neighborhood west of Rafah city, coded to Tal as Sultan (Rafah, Gaza Strip) injuring one person. This event occurred during the first stage of a 42-day ceasefire that began on 19 January 2025.", "fatalities": 0, "tags": null, "timestamp": 1762829569 }, "geometry": { "type": "Point", "coordinates": [ 34.2414, 31.3098 ] } },
{ "type": "Feature", "properties": { "event_id_cnty": "PSE69699", "event_date": "2/23/2025", "year": 2025, "time_precision": 1, "disorder_type": "Political violence", "event_type": "Violence against civilians", "sub_event_type": "Attack", "actor1": "Military Forces of Israel (2022-)", "assoc_actor_1": null, "inter1": 8, "actor2": "Civilians (Palestine)", "assoc_actor_2": null, "inter2": 7, "interaction": 78, "civilian_targeting": "Civilian targeting", "iso": 275, "region": "Middle East", "country": "Palestine", "admin1": "Gaza Strip", "admin2": "North Gaza", "admin3": null, "location": "Ezbet Abed Rabbou", "latitude": 31.5163, "longitude": 34.5115, "geo_precision": 1, "source": "Liveuamap", "source_scale": "Local partner-New media", "notes": "On 23 February 2025, Israeli forces fired gunshots near the Martyrs' Cemetery in east of Jabalya, coded to Ezbet Abed Rabbou (North Gaza, Gaza Strip) killing 1 person and wounding others. This event occurred during the first stage of a 42-day ceasefire that began on 19 January 2025.", "fatalities": 1, "tags": null, "timestamp": 1753956656 }, "geometry": { "type": "Point", "coordinates": [ 34.5115, 31.5163 ] } },
{ "type": "Feature", "properties": { "event_id_cnty": "PSE69697", "event_date": "2/23/2025", "year": 2025, "time_precision": 1, "disorder_type": "Political violence", "event_type": "Violence against civilians", "sub_event_type": "Attack", "actor1": "Military Forces of Israel (2022-)", "assoc_actor_1": null, "inter1": 8, "actor2": "Civilians (Palestine)", "assoc_actor_2": null, "inter2": 7, "interaction": 78, "civilian_targeting": "Civilian targeting", "iso": 275, "region": "Middle East", "country": "Palestine", "admin1": "Gaza Strip", "admin2": "Gaza City", "admin3": null, "location": "Gaza - Ijdeedeh", "latitude": 31.4984, "longitude": 34.4978, "geo_precision": 2, "source": "Quds News Network", "source_scale": "National", "notes": "On 23 February 2025, an Israeli sniper shot and killed a Palestinian as he was in his agricultural land in Shaaf street east of Gaza city, coded to Gaza - Ijdeedeh (Gaza City, Gaza Strip). This event occurred during the first stage of a 42-day ceasefire that began on 19 January 2025.", "fatalities": 1, "tags": null, "timestamp": 1753956656 }, "geometry": { "type": "Point", "coordinates": [ 34.4978, 31.4984 ] } },
{ "type": "Feature", "properties": { "event_id_cnty": "PSE69710", "event_date": "2/24/2025", "year": 2025, "time_precision": 1, "disorder_type": "Political violence", "event_type": "Violence against civilians", "sub_event_type": "Attack", "actor1": "Military Forces of Israel (2022-)", "assoc_actor_1": null, "inter1": 8, "actor2": "Civilians (Palestine)", "assoc_actor_2": null, "inter2": 7, "interaction": 78, "civilian_targeting": "Civilian targeting", "iso": 275, "region": "Middle East", "country": "Palestine", "admin1": "Gaza Strip", "admin2": "Khan Yunis", "admin3": null, "location": "Al Farahin", "latitude": 31.3319, "longitude": 34.3602, "geo_precision": 1, "source": "Palestine News and Information Agency", "source_scale": "National", "notes": "On 24 February 2025, Israeli forces heavily fired at residential areas in Al Farahin (Khan Yunis, Gaza Strip). Casualties unknown. This event occurred during the first stage of a 42-day ceasefire that began on 19 January 2025.", "fatalities": 0, "tags": null, "timestamp": 1753956656 }, "geometry": { "type": "Point", "coordinates": [ 34.3602, 31.3319 ] } },
{ "type": "Feature", "properties": { "event_id_cnty": "PSE69721", "event_date": "2/24/2025", "year": 2025, "time_precision": 1, "disorder_type": "Political violence", "event_type": "Explosions/Remote violence", "sub_event_type": "Air/drone strike", "actor1": "Military Forces of Israel (2022-)", "assoc_actor_1": null, "inter1": 8, "actor2": "Civilians (Palestine)", "assoc_actor_2": null, "inter2": 7, "interaction": 78, "civilian_targeting": "Civilian targeting", "iso": 275, "region": "Middle East", "country": "Palestine", "admin1": "Gaza Strip", "admin2": "Rafah", "admin3": null, "location": "Rafah", "latitude": 31.287, "longitude": 34.2595, "geo_precision": 1, "source": "Palestine News and Information Agency; Quds News Network", "source_scale": "National", "notes": "On 24 February 2025, Israeli drones targeted residential houses near Awda roundabout in Rafah city (Rafah, Gaza Strip) causing some of them to catch fire. Casualties unknown. This event occurred during the first stage of a 42-day ceasefire that began on 19 January 2025.", "fatalities": 0, "tags": null, "timestamp": 1762829569 }, "geometry": { "type": "Point", "coordinates": [ 34.2595, 31.287 ] } },
{ "type": "Feature", "properties": { "event_id_cnty": "PSE69724", "event_date": "2/25/2025", "year": 2025, "time_precision": 1, "disorder_type": "Political violence", "event_type": "Explosions/Remote violence", "sub_event_type": "Air/drone strike", "actor1": "Military Forces of Israel (2022-)", "assoc_actor_1": null, "inter1": 8, "actor2": "Civilians (Palestine)", "assoc_actor_2": null, "inter2": 7, "interaction": 78, "civilian_targeting": "Civilian targeting", "iso": 275, "region": "Middle East", "country": "Palestine", "admin1": "Gaza Strip", "admin2": "Khan Yunis", "admin3": null, "location": "Abasan al Kabirah", "latitude": 31.3191, "longitude": 34.3401, "geo_precision": 1, "source": "Quds News Network", "source_scale": "National", "notes": "On 25 February 2025, an Israeli drone opened fire in Abasan al Kabirah (Khan Yunis, Gaza Strip) injuring a Palestinian man in a prayer room. This event occurred during the first stage of a 42-day ceasefire that began on 19 January 2025.", "fatalities": 0, "tags": null, "timestamp": 1753956656 }, "geometry": { "type": "Point", "coordinates": [ 34.3401, 31.3191 ] } },
{ "type": "Feature", "properties": { "event_id_cnty": "PSE69725", "event_date": "2/25/2025", "year": 2025, "time_precision": 1, "disorder_type": "Political violence", "event_type": "Explosions/Remote violence", "sub_event_type": "Remote explosive/landmine/IED", "actor1": "Military Forces of Israel (2022-)", "assoc_actor_1": null, "inter1": 8, "actor2": "Civilians (Palestine)", "assoc_actor_2": null, "inter2": 7, "interaction": 78, "civilian_targeting": "Civilian targeting", "iso": 275, "region": "Middle East", "country": "Palestine", "admin1": "Gaza Strip", "admin2": "Deir El Balah", "admin3": null, "location": "An Nusayrat - West", "latitude": 31.4525, "longitude": 34.3756, "geo_precision": 1, "source": "Quds News Network", "source_scale": "National", "notes": "On 25 February 2025, a suspicious object, likely an Israeli unexploded ordnance [UXO], exploded in An Nusayrat - West (Deir El Balah, Gaza Strip) injuring a child. This event occurred during the first stage of a 42-day ceasefire that began on 19 January 2025.", "fatalities": 0, "tags": null, "timestamp": 1753956656 }, "geometry": { "type": "Point", "coordinates": [ 34.3756, 31.4525 ] } },
{ "type": "Feature", "properties": { "event_id_cnty": "PSE69743", "event_date": "2/26/2025", "year": 2025, "time_precision": 1, "disorder_type": "Political violence", "event_type": "Explosions/Remote violence", "sub_event_type": "Remote explosive/landmine/IED", "actor1": "Military Forces of Israel (2022-)", "assoc_actor_1": null, "inter1": 8, "actor2": "Civilians (Palestine)", "assoc_actor_2": null, "inter2": 7, "interaction": 78, "civilian_targeting": "Civilian targeting", "iso": 275, "region": "Middle East", "country": "Palestine", "admin1": "Gaza Strip", "admin2": "North Gaza", "admin3": null, "location": "Jabalya Camp", "latitude": 31.536, "longitude": 34.4907, "geo_precision": 2, "source": "Quds News Network", "source_scale": "National", "notes": "On 26 February 2025, an unexploded ordnance [UXO] presumably from Israeli forces exploded in the Six Martyr area west of Jabalya Camp (North Gaza, Gaza Strip), resulting in two people being killed and two others injured. This event occurred during the first stage of a 42-day ceasefire that began on 19 January 2025.", "fatalities": 2, "tags": null, "timestamp": 1753956656 }, "geometry": { "type": "Point", "coordinates": [ 34.4907, 31.536 ] } },
{ "type": "Feature", "properties": { "event_id_cnty": "PSE69738", "event_date": "2/26/2025", "year": 2025, "time_precision": 1, "disorder_type": "Political violence", "event_type": "Violence against civilians", "sub_event_type": "Attack", "actor1": "Military Forces of Israel (2022-)", "assoc_actor_1": null, "inter1": 8, "actor2": "Civilians (Palestine)", "assoc_actor_2": "Farmers (Palestine)", "inter2": 7, "interaction": 78, "civilian_targeting": "Civilian targeting", "iso": 275, "region": "Middle East", "country": "Palestine", "admin1": "Gaza Strip", "admin2": "Deir El Balah", "admin3": null, "location": "Al Maghazi", "latitude": 31.4214, "longitude": 34.3865, "geo_precision": 2, "source": "Palestinian Ministry of Health; Quds News Network", "source_scale": "Other-National", "notes": "On 26 February 2025, Israeli forces opened fire at farmers east of Al Maghazi (Deir El Balah, Gaza Strip), resulting in one being injured. This event occurred during the first stage of a 42-day ceasefire that began on 19 January 2025. [Palestinian Ministry of Health reported 17 fatalities between 25 - 26 February 2025. 15 fatalities not attributed to specific added to this event.]", "fatalities": 15, "tags": null, "timestamp": 1753956656 }, "geometry": { "type": "Point", "coordinates": [ 34.3865, 31.4214 ] } },
{ "type": "Feature", "properties": { "event_id_cnty": "PSE69750", "event_date": "2/26/2025", "year": 2025, "time_precision": 1, "disorder_type": "Political violence", "event_type": "Violence against civilians", "sub_event_type": "Attack", "actor1": "Military Forces of Israel (2022-)", "assoc_actor_1": null, "inter1": 8, "actor2": "Civilians (Palestine)", "assoc_actor_2": null, "inter2": 7, "interaction": 78, "civilian_targeting": "Civilian targeting", "iso": 275, "region": "Middle East", "country": "Palestine", "admin1": "Gaza Strip", "admin2": "Rafah", "admin3": null, "location": "Rafah", "latitude": 31.287, "longitude": 34.2595, "geo_precision": 1, "source": "Quds News Network", "source_scale": "National", "notes": "On 26 February 2025, Israeli forces opened fire in Rafah (Rafah, Gaza Strip), resulting in two individuals being injured. This event occurred during the first stage of a 42-day ceasefire that began on 19 January 2025.", "fatalities": 0, "tags": null, "timestamp": 1762829569 }, "geometry": { "type": "Point", "coordinates": [ 34.2595, 31.287 ] } },
{ "type": "Feature", "properties": { "event_id_cnty": "PSE69760", "event_date": "2/27/2025", "year": 2025, "time_precision": 1, "disorder_type": "Political violence", "event_type": "Explosions/Remote violence", "sub_event_type": "Shelling/artillery/missile attack", "actor1": "Military Forces of Israel (2022-)", "assoc_actor_1": null, "inter1": 8, "actor2": "Civilians (Palestine)", "assoc_actor_2": null, "inter2": 7, "interaction": 78, "civilian_targeting": "Civilian targeting", "iso": 275, "region": "Middle East", "country": "Palestine", "admin1": "Gaza Strip", "admin2": "Gaza City", "admin3": null, "location": "Juhr ad Dik", "latitude": 31.4557, "longitude": 34.4372, "geo_precision": 1, "source": "Liveuamap", "source_scale": "Local partner-New media", "notes": "On 27 February 2025, Israeli tanks opened fire at people in Juhr ad Dik (Gaza City, Gaza Strip), casualties unknown. This event occurred during the first stage of a 42-day ceasefire that began on 19 January 2025.", "fatalities": 0, "tags": null, "timestamp": 1753956656 }, "geometry": { "type": "Point", "coordinates": [ 34.4372, 31.4557 ] } },
{ "type": "Feature", "properties": { "event_id_cnty": "PSE69756", "event_date": "2/27/2025", "year": 2025, "time_precision": 1, "disorder_type": "Political violence", "event_type": "Explosions/Remote violence", "sub_event_type": "Air/drone strike", "actor1": "Military Forces of Israel (2022-)", "assoc_actor_1": null, "inter1": 8, "actor2": "Civilians (Palestine)", "assoc_actor_2": null, "inter2": 7, "interaction": 78, "civilian_targeting": "Civilian targeting", "iso": 275, "region": "Middle East", "country": "Palestine", "admin1": "Gaza Strip", "admin2": "Khan Yunis", "admin3": null, "location": "Al Farahin", "latitude": 31.3319, "longitude": 34.3602, "geo_precision": 1, "source": "Palestinian Ministry of Health; Quds News Network", "source_scale": "Other-National", "notes": "On 27 February 2025, Israeli drones dropped bombs towards people returning to their homes in Al Farahin neighbourhood, in eastern Abasan al Kabirah (Khan Yunis, Gaza Strip), casualties unknown. This event occurred during the first stage of a 42-day ceasefire that began on 19 January 2025. [Palestinian Ministry of Health reported 2 fatalities between 27 - 28 February 2025. 1 fatality not attributed to specific events added to this event.]", "fatalities": 1, "tags": null, "timestamp": 1753956656 }, "geometry": { "type": "Point", "coordinates": [ 34.3602, 31.3319 ] } },
{ "type": "Feature", "properties": { "event_id_cnty": "PSE69764", "event_date": "2/27/2025", "year": 2025, "time_precision": 1, "disorder_type": "Political violence", "event_type": "Explosions/Remote violence", "sub_event_type": "Air/drone strike", "actor1": "Military Forces of Israel (2022-)", "assoc_actor_1": null, "inter1": 8, "actor2": "Civilians (Palestine)", "assoc_actor_2": null, "inter2": 7, "interaction": 78, "civilian_targeting": "Civilian targeting", "iso": 275, "region": "Middle East", "country": "Palestine", "admin1": "Gaza Strip", "admin2": "Rafah", "admin3": null, "location": "Rafah", "latitude": 31.287, "longitude": 34.2595, "geo_precision": 1, "source": "Palestine News and Information Agency", "source_scale": "National", "notes": "On 27 February 2025, an Israeli drone struck a group of people in Al Shaboura camp in central Rafah (Rafah, Gaza Strip), resulting in one child injured. This event occurred during the first stage of a 42-day ceasefire that began on 19 January 2025.", "fatalities": 0, "tags": null, "timestamp": 1762829569 }, "geometry": { "type": "Point", "coordinates": [ 34.2595, 31.287 ] } },
{ "type": "Feature", "properties": { "event_id_cnty": "PSE69757", "event_date": "2/27/2025", "year": 2025, "time_precision": 1, "disorder_type": "Political violence", "event_type": "Explosions/Remote violence", "sub_event_type": "Remote explosive/landmine/IED", "actor1": "Military Forces of Israel (2022-)", "assoc_actor_1": null, "inter1": 8, "actor2": "Civilians (Palestine)", "assoc_actor_2": null, "inter2": 7, "interaction": 78, "civilian_targeting": "Civilian targeting", "iso": 275, "region": "Middle East", "country": "Palestine", "admin1": "Gaza Strip", "admin2": "Rafah", "admin3": null, "location": "Al Junainah", "latitude": 31.2642, "longitude": 34.2636, "geo_precision": 1, "source": "Quds News Network", "source_scale": "National", "notes": "On 27 February 2025, an unexploded ordnance [UXO] presumably from Israeli forces exploded in Al Junainah (Rafah, Gaza Strip), resulting in three injuries. This event occurred during the first stage of a 42-day ceasefire that began on 19 January 2025.", "fatalities": 0, "tags": null, "timestamp": 1753956656 }, "geometry": { "type": "Point", "coordinates": [ 34.2636, 31.2642 ] } },
{ "type": "Feature", "properties": { "event_id_cnty": "PSE69765", "event_date": "2/27/2025", "year": 2025, "time_precision": 1, "disorder_type": "Political violence", "event_type": "Violence against civilians", "sub_event_type": "Attack", "actor1": "Military Forces of Israel (2022-)", "assoc_actor_1": null, "inter1": 8, "actor2": "Civilians (Palestine)", "assoc_actor_2": "Women (Palestine)", "inter2": 7, "interaction": 78, "civilian_targeting": "Civilian targeting", "iso": 275, "region": "Middle East", "country": "Palestine", "admin1": "Gaza Strip", "admin2": "Rafah", "admin3": null, "location": "Rafah Border Crossing", "latitude": 31.2486, "longitude": 34.2592, "geo_precision": 2, "source": "Palestine News and Information Agency", "source_scale": "National", "notes": "On 27 February 2025, Israeli forces opened fire in the vicinity of the Rafah land crossing coded to Rafah Border Crossing (Rafah, Gaza Strip), resulting in one injury [woman]. This event occurred during the first stage of a 42-day ceasefire that began on 19 January 2025.", "fatalities": 0, "tags": null, "timestamp": 1753956656 }, "geometry": { "type": "Point", "coordinates": [ 34.2592, 31.2486 ] } },
{ "type": "Feature", "properties": { "event_id_cnty": "PSE69772", "event_date": "2/28/2025", "year": 2025, "time_precision": 1, "disorder_type": "Political violence", "event_type": "Explosions/Remote violence", "sub_event_type": "Shelling/artillery/missile attack", "actor1": "Military Forces of Israel (2022-)", "assoc_actor_1": null, "inter1": 8, "actor2": "Civilians (Palestine)", "assoc_actor_2": "Fishers (Palestine)", "inter2": 7, "interaction": 78, "civilian_targeting": "Civilian targeting", "iso": 275, "region": "Middle East", "country": "Palestine", "admin1": "Gaza Strip", "admin2": "Gaza City", "admin3": null, "location": "Coast of Gaza City", "latitude": 31.5304, "longitude": 34.4215, "geo_precision": 2, "source": "Palestine News and Information Agency", "source_scale": "National", "notes": "On 28 February 2025, Israeli naval boats opened fire at fishermen off the Coast of Gaza City (Gaza City, Gaza Strip), resulting in two injuries. This event occurred during the first stage of a 42-day ceasefire that began on 19 January 2025.", "fatalities": 0, "tags": null, "timestamp": 1753956656 }, "geometry": { "type": "Point", "coordinates": [ 34.4215, 31.5304 ] } },
{ "type": "Feature", "properties": { "event_id_cnty": "PSE69777", "event_date": "2/28/2025", "year": 2025, "time_precision": 1, "disorder_type": "Political violence", "event_type": "Explosions/Remote violence", "sub_event_type": "Air/drone strike", "actor1": "Military Forces of Israel (2022-)", "assoc_actor_1": null, "inter1": 8, "actor2": "Civilians (Palestine)", "assoc_actor_2": null, "inter2": 7, "interaction": 78, "civilian_targeting": "Civilian targeting", "iso": 275, "region": "Middle East", "country": "Palestine", "admin1": "Gaza Strip", "admin2": "Rafah", "admin3": null, "location": "Rafah", "latitude": 31.287, "longitude": 34.2595, "geo_precision": 1, "source": "Palestine News and Information Agency", "source_scale": "National", "notes": "On 28 February 2025, an Israeli drone shelled central Rafah (Rafah, Gaza Strip), leaving one civilian killed. This event occurred during the first stage of a 42-day ceasefire that began on 19 January 2025.", "fatalities": 1, "tags": null, "timestamp": 1762829569 }, "geometry": { "type": "Point", "coordinates": [ 34.2595, 31.287 ] } }
]
}
